[
  {
    "type": "node",
    "id": 26150422,
    "lat": 50.4500336,
    "lon": 30.5241361,
    "tags": {
      "admin_level": "2",
      "alt_name": "Kiëf",
      "alt_name:af": "Kiëf",
      "alt_name:an": "Kiev",
      "alt_name:ca": "Kíev",
      "alt_name:en": "Kiev",
      "alt_name:eo": "Kievo",
      "alt_name:es": "Kyiv",
      "alt_name:et": "Kõjiv",
      "alt_name:fr": "Kyiv",
      "alt_name:hr": "Kijiv",
      "alt_name:it": "Kiev",
      "alt_name:ja": "キーウ",
      "alt_name:ko": "키예프",
      "alt_name:nl": "Kyiv",
      "alt_name:pt": "Quieve",
      "alt_name:sh": "Kijev",
      "alt_name:sv": "Kiev",
      "alt_name:tr": "Kiev",
      "alt_name:vi": "Kiev",
      "alt_name:vo": "Kiev",
      "capital": "yes",
      "ele": "179",
      "katotth": "UA80000000000093317",
      "koatuu": "8000000000",
      "name": "Київ",
      "name:aan": "Kyiv",
      "name:ab": "Кыив",
      "name:af": "Kyiv",
      "name:als": "Kiew",
      "name:am": "ኪየቭ",
      "name:ang": "Cænugeard",
      "name:ar": "كييف",
      "name:arz": "كييف",
      "name:ast": "Kiev",
      "name:az": "Kiyev",
      "name:ba": "Киев",
      "name:bar": "Kiew",
      "name:bat-smg": "Kijevs",
      "name:be": "Кіеў",
      "name:be-tarask": "Кіеў",
      "name:bg": "Киев",
      "name:bi": "Kyiv",
      "name:bn": "কিয়েভ",
      "name:bo": "ཀིབ།",
      "name:bpy": "কিয়েভ",
      "name:br": "Kyyiv",
      "name:bs": "Kijev",
      "name:bxr": "Киев",
      "name:ca": "Kíiv",
      "name:cbk-zam": "Kyiv",
      "name:ckb": "کیێڤ",
      "name:crh": "Kiyev",
      "name:cs": "Kyjev",
      "name:csb": "Kyiv",
      "name:cu": "Кꙑѥвъ",
      "name:cv": "Кийӳ",
      "name:cy": "Kyiv",
      "name:da": "Kyiv",
      "name:de": "Kiew",
      "name:dsb": "Kijew",
      "name:el": "Κίεβο",
      "name:en": "Kyiv",
      "name:eo": "Kijivo",
      "name:es": "Kiev",
      "name:et": "Kiiev",
      "name:eu": "Kiev",
      "name:ext": "Kyiv",
      "name:fa": "کی‌یف",
      "name:fi": "Kiova",
      "name:fo": "Kyiv",
      "name:fr": "Kiev",
      "name:frr": "Kyiv",
      "name:fy": "Kiev",
      "name:ga": "Cív",
      "name:gag": "Kıyiv",
      "name:gd": "Kyiv",
      "name:gl": "Kiev",
      "name:gv": "Kyiv",
      "name:haw": "Kyiv",
      "name:he": "קייב",
      "name:hi": "कीव",
      "name:hif": "Kiev",
      "name:hr": "Kijev",
      "name:hsb": "Kijew",
      "name:ht": "Kyèv",
      "name:hu": "Kijev",
      "name:hy": "Կիև",
      "name:ia": "Kyiv",
      "name:id": "Kyiv",
      "name:ie": "Kyiv",
      "name:ilo": "Kyiv",
      "name:io": "Kyiv",
      "name:is": "Kænugarður",
      "name:it": "Kiev",
      "name:ja": "キーウ",
      "name:jbo": "kiev",
      "name:jv": "Kyiv",
      "name:ka": "კიევი",
      "name:kaa": "Kiev",
      "name:kk": "Киев",
      "name:kl": "Kyiv",
      "name:kn": "ಕೀವ್",
      "name:ko": "키이우",
      "name:koi": "Киев",
      "name:ku": "Kîev",
      "name:kv": "Киев",
      "name:ky": "Киев",
      "name:la": "Kiovia",
      "name:lad": "Kyiv",
      "name:lb": "Kiew",
      "name:lij": "Kiev",
      "name:lmo": "Kiev",
      "name:ln": "Kyjiw",
      "name:lt": "Kijevas",
      "name:lv": "Kijiva",
      "name:mdf": "Киев",
      "name:mhr": "Киев",
      "name:mi": "Kieu",
      "name:mk": "Кијив",
      "name:ml": "കീവ്",
      "name:mn": "Киев",
      "name:mr": "क्यीव",
      "name:mrj": "Киев",
      "name:ms": "Kiev",
      "name:mt": "Kjiv",
      "name:my": "ကီးယက်မြို့",
      "name:myv": "Киев ош",
      "name:nah": "Kiev",
      "name:nan": "Kyyiv",
      "name:nds": "Kiew",
      "name:nl": "Kiev",
      "name:nn": "Kiev",
      "name:no": "Kyiv",
      "name:nov": "Kiyev",
      "name:oc": "Kyiiv",
      "name:os": "Киев",
      "name:pa": "ਕੀਵ",
      "name:pap": "Kiev",
      "name:pl": "Kijów",
      "name:pms": "Kijv",
      "name:pnb": "کیف",
      "name:prefix": "місто",
      "name:pt": "Kiev",
      "name:qu": "Kiyiw",
      "name:rmy": "Kiev",
      "name:ro": "Kiev",
      "name:roa-rup": "Kiev",
      "name:roa-tara": "Kiev",
      "name:ru": "Киев",
      "name:rue": "Київ",
      "name:sah": "Киев",
      "name:sc": "Kiev",
      "name:scn": "Kiev",
      "name:sco": "Kiev",
      "name:se": "Kiova",
      "name:sh": "Kyiv",
      "name:sk": "Kyjev",
      "name:sl": "Kijev",
      "name:sq": "Kievi",
      "name:sr": "Кијев",
      "name:sv": "Kyiv",
      "name:sw": "Kiev",
      "name:szl": "Kijōw",
      "name:ta": "கீவ்",
      "name:te": "క్యివ్",
      "name:tg": "Киев",
      "name:th": "เคียฟ",
      "name:tl": "Kiev",
      "name:tr": "Kıyiv",
      "name:tt": "Киев",
      "name:tw": "Kiev",
      "name:tzl": "Kíiv",
      "name:udm": "Киев",
      "name:ug": "كىيېۋ",
      "name:uk": "Київ",
      "name:ur": "کیف",
      "name:uz": "Kiyev",
      "name:vec": "Kiev",
      "name:vep": "Kijev",
      "name:vi": "Kyiv",
      "name:vo": "Küyiv",
      "name:vro": "Kiiova",
      "name:war": "Kiev",
      "name:wo": "Kiyew",
      "name:xmf": "კიევი",
      "name:yi": "קיעוו",
      "name:yo": "Kiev",
      "name:yue": "基輔",
      "name:zh": "基辅",
      "name:zh-Hans": "基辅",
      "name:zh-Hant": "基輔",
      "name:zu": "IKiyevi",
      "note": "rank 10",
      "official_name:en": "Kyiv",
      "official_name:fr": "Kyïv",
      "old_name:it": "Chiovia",
      "old_name:lv": "Kijeva",
      "place": "city",
      "population": "2952301",
      "population:date": "2022-01-01",
      "source:name:br": "ofis publik ar brezhoneg",
      "source:population": "https://uk.wikipedia.org/wiki/Київ",
      "wikidata": "Q1899",
      "wikipedia": "uk:Київ"
    }
  },
  {
    "type": "node",
    "id": 26150436,
    "lat": 51.494099,
    "lon": 31.294332,
    "tags": {
      "alt_name:he": "צ'רניגוב",
      "alt_name:ko": "체르니고프",
      "capital": "4",
      "flag": "http://upload.wikimedia.org/wikipedia/commons/2/2a/Alex_K_Chernihiv_prapor_1992.svg",
      "katotth": "UA74100390010054825",
      "koatuu": "7410100000",
      "name": "Чернігів",
      "name:ar": "تشرنيغوف",
      "name:az": "Çerniqiv",
      "name:be": "Чарнігаў",
      "name:bg": "Чернихив",
      "name:ca": "Txerníhiv",
      "name:ckb": "چێرنیھیڤ",
      "name:crh": "Çernigiv",
      "name:cs": "Černihiv",
      "name:de": "Tschernihiw",
      "name:en": "Chernihiv",
      "name:es": "Cherníhiv",
      "name:et": "Tšernigiv",
      "name:eu": "Txernihiv",
      "name:fr": "Tchernihiv",
      "name:he": "צ'רניהיב",
      "name:hr": "Černihiv",
      "name:hu": "Csernyihiv",
      "name:it": "Černihiv",
      "name:ja": "チェルニーヒウ",
      "name:ko": "체르니히우",
      "name:ku": "Çêrnîhîv",
      "name:la": "Czernihovia",
      "name:lt": "Černihivas",
      "name:ml": "ചെർണിഹിവ്",
      "name:nl": "Tsjernihiv",
      "name:pl": "Czernihów",
      "name:prefix": "місто",
      "name:ro": "Cernihiv",
      "name:ru": "Чернигов",
      "name:sr": "Чернигов",
      "name:tr": "Çernihiv",
      "name:uk": "Чернігів",
      "name:zh": "切尔尼戈夫",
      "old_name:cs": "Černigov",
      "old_name:de": "Tschernigau;Tschernigow",
      "old_name:en": "Chernigov",
      "old_name:hr": "Černigov",
      "old_name:lt": "Černigovas",
      "old_name:ro": "Cernigov;Cernigău",
      "place": "city",
      "population": "293969",
      "postal_code": "14000-14499",
      "wikidata": "Q157053",
      "wikipedia": "uk:Чернігів"
    }
  },
  {
    "type": "node",
    "id": 26150437,
    "lat": 46.4843023,
    "lon": 30.7322878,
    "tags": {
      "alt_name:en": "Odessa",
      "alt_name:eo": "Odesa;Odessa",
      "alt_name:ja": "オデッサ",
      "capital": "4",
      "ele": "50",
      "katotth": "UA51100270010076757",
      "koatuu": "5110100000",
      "name": "Одеса",
      "name:ar": "أوديسا",
      "name:az-Arab": "أوديسا",
      "name:azb": "أوديسا",
      "name:be": "Адэса",
      "name:ca": "Odessa",
      "name:ckb": "ئۆدێسا",
      "name:cs": "Oděsa",
      "name:de": "Odessa",
      "name:el": "Οδησσός",
      "name:en": "Odesa",
      "name:eo": "Odeso",
      "name:es": "Odesa",
      "name:et": "Odessa",
      "name:eu": "Odesa",
      "name:fa": "اودسا",
      "name:fi": "Odessa",
      "name:fr": "Odessa",
      "name:gag": "Odesa",
      "name:he": "אודסה",
      "name:hi": "ओदॆस",
      "name:hr": "Odesa",
      "name:hu": "Odessza",
      "name:hy": "Օդեսա",
      "name:io": "Odessa",
      "name:it": "Odessa",
      "name:ja": "オデーサ",
      "name:ka": "ოდესა",
      "name:kk-Arab": "ودەسسا",
      "name:kn": "ಓದೆಸ",
      "name:ko": "오데사",
      "name:ku": "Odêsa",
      "name:lt": "Odessa",
      "name:ml": "ഒഡെസ",
      "name:nl": "Odessa",
      "name:nn": "Odessa",
      "name:no": "Odessa",
      "name:oc": "Odesa",
      "name:pl": "Odessa",
      "name:prefix": "місто",
      "name:pt": "Odessa",
      "name:ro": "Odesa",
      "name:ru": "Одесса",
      "name:sk": "Odesa",
      "name:sr": "Одеса",
      "name:sv": "Odessa",
      "name:uk": "Одеса",
      "name:ur": "اودیسا",
      "name:yi": "אדעס",
      "name:zh": "敖德萨",
      "name:zh-Hans": "敖德萨",
      "name:zh-Hant": "敖德薩",
      "place": "city",
      "population": "1008852",
      "wikidata": "Q1874",
      "wikipedia": "uk:Одеса"
    }
  },
  {
    "type": "node",
    "id": 26150791,
    "lat": 49.841952,
    "lon": 24.0315921,
    "tags": {
      "admin_level": "4",
      "alt_name:ar": "ليمبرغ",
      "alt_name:de": "Lwiw",
      "alt_name:en": "Lvov",
      "alt_name:fr": "Leopol",
      "alt_name:hr": "Ljviv",
      "capital": "4",
      "katotth": "UA46060250010015970",
      "koatuu": "4610100000",
      "name": "Львів",
      "name:ar": "لفيف",
      "name:be": "Львоў",
      "name:br": "Lviv",
      "name:ca": "Lviv",
      "name:ckb": "لڤیڤ",
      "name:cs": "Lvov",
      "name:de": "Lemberg",
      "name:en": "Lviv",
      "name:es": "Leópolis",
      "name:et": "Lviv",
      "name:eu": "Lviv",
      "name:fr": "Lviv",
      "name:he": "לבוב",
      "name:hr": "Lavov",
      "name:hsb": "Lwów",
      "name:hu": "Lviv",
      "name:hy": "Լվով",
      "name:it": "Leopoli",
      "name:ja": "リヴィウ",
      "name:ka": "ლვოვი",
      "name:ko": "리비우",
      "name:ku": "Lvîv",
      "name:la": "Leopolis",
      "name:lt": "Lvovas",
      "name:lv": "Ļviva",
      "name:ml": "ലിവിവ്",
      "name:nl": "Lviv",
      "name:pl": "Lwów",
      "name:prefix": "місто",
      "name:pt": "Leópolis",
      "name:ro": "Liov",
      "name:ru": "Львов",
      "name:sk": "Ľvov",
      "name:sr": "Лавов",
      "name:szl": "Lymberg",
      "name:tr": "Lviv",
      "name:uk": "Львів",
      "name:zh": "利沃夫",
      "old_name:ko": "르부프",
      "old_name:lv": "Ļvova",
      "place": "city",
      "population": "724822",
      "population:date": "2019-01-01",
      "postal_code": "79000",
      "website": "https://www.lvivrada.gov.ua/",
      "wikidata": "Q36036",
      "wikipedia": "uk:Львів",
      "wikipedia:pl": "pl:Lwów"
    }
  },
  {
    "type": "node",
    "id": 27121360,
    "lat": 49.5897423,
    "lon": 34.5507948,
    "tags": {
      "capital": "4",
      "katotth": "UA53080370010073240",
      "koatuu": "5310100000",
      "name": "Полтава",
      "name:ar": "بولتافا",
      "name:bg": "Полтава",
      "name:ckb": "پۆلتاڤا",
      "name:cs": "Poltava",
      "name:de": "Poltawa",
      "name:el": "Πολτάβα",
      "name:en": "Poltava",
      "name:eo": "Poltavo",
      "name:es": "Poltava",
      "name:et": "Poltava",
      "name:eu": "Poltava",
      "name:fa": "پولتاوا",
      "name:fr": "Poltava",
      "name:he": "פולטבה",
      "name:hr": "Poltava",
      "name:hu": "Poltava",
      "name:it": "Poltava",
      "name:ja": "ポルタヴァ",
      "name:ko": "폴타바",
      "name:ku": "Poltava",
      "name:ml": "പോൾട്ടാവ",
      "name:mn": "Полтава",
      "name:nl": "Poltava",
      "name:pl": "Połtawa",
      "name:pnb": "پولتاوا",
      "name:prefix": "місто",
      "name:ro": "Poltava",
      "name:ru": "Полтава",
      "name:sr": "Полтава",
      "name:ta": "போல்தாவா",
      "name:th": "ปอลตาวา",
      "name:uk": "Полтава",
      "name:ur": "پولتاوا",
      "name:yi": "פאלטאווע",
      "name:yue": "波爾塔瓦",
      "name:zh": "波尔塔瓦",
      "place": "city",
      "population": "297600",
      "postal_code": "36000-36499",
      "wikidata": "Q156747",
      "wikipedia": "uk:Полтава"
    }
  },
  {
    "type": "node",
    "id": 27122612,
    "lat": 47.8507859,
    "lon": 35.1182867,
    "tags": {
      "alt_name:de": "Saporischja",
      "alt_name:en": "Zaporozhye",
      "alt_name:fr": "Zaporijia;Zaporojié",
      "alt_name:ko": "자포로제",
      "alt_name:zh": "扎波里日亚;扎波里日亞;札波罗结;札波羅熱;札波羅結",
      "capital": "4",
      "katotth": "UA23060070010069526",
      "koatuu": "2310100000",
      "name": "Запоріжжя",
      "name:ar": "زاباروجيا",
      "name:az": "Zaporojya",
      "name:be": "Запарожжа",
      "name:ckb": "زاپۆریژیا",
      "name:crh": "Zaporijjâ",
      "name:cs": "Záporoží",
      "name:de": "Saporischschja",
      "name:el": "Ζαπορίζια",
      "name:en": "Zaporizhzhia",
      "name:es": "Zaporiyia",
      "name:et": "Zaporižžja",
      "name:eu": "Zaporizhia",
      "name:fr": "Zaporijjia",
      "name:he": "זפוריז'יה",
      "name:hr": "Zaporižja",
      "name:hu": "Zaporizzsja",
      "name:it": "Zaporižžja",
      "name:ja": "ザポリージャ",
      "name:ko": "자포리자",
      "name:ku": "Zaporîjya",
      "name:lt": "Zaporižia",
      "name:lv": "Zaporižja",
      "name:ml": "സപ്പോരിജിയ",
      "name:nl": "Zaporizja",
      "name:pl": "Zaporoże",
      "name:prefix": "місто",
      "name:pt": "Zaporizhzhya",
      "name:ro": "Zaporojie",
      "name:ru": "Запорожье",
      "name:rue": "Запоріжя",
      "name:sh": "Zaporižja",
      "name:sk": "Zaporižžia",
      "name:sr": "Запорожје",
      "name:sv": "Zaporizjzja",
      "name:tr": "Zaporijjia",
      "name:uk": "Запоріжжя",
      "name:zh": "扎波罗热 / 札波羅熱",
      "name:zh-Hans": "扎波罗热",
      "name:zh-Hant": "札波羅熱",
      "old_name:az": "Zaporojye",
      "old_name:de": "Saporoschje",
      "old_name:de:-1921": "Aleksandrowsk",
      "old_name:en": "Zaporozhye",
      "old_name:en:-1921": "Aleksandrovsk;Oleksandrivsk",
      "old_name:fr": "Aleksandrovsk",
      "old_name:hr": "Zaporožje",
      "old_name:lt": "Zaporožė",
      "old_name:ru:-1921": "Александровск",
      "old_name:sh": "Zaporožje",
      "old_name:sk": "Záporožie",
      "place": "city",
      "population": "706116",
      "wikidata": "Q157835",
      "wikipedia": "uk:Запоріжжя"
    }
  },
  {
    "type": "node",
    "id": 27212295,
    "lat": 45.1907635,
    "lon": 33.3679049,
    "tags": {
      "addr:postcode": "97400-97490",
      "katotth": "UA01080150010090810",
      "koatuu": "0110900000",
      "name": "Евпатория",
      "name:ca": "Ievpatória",
      "name:crh": "Kezlev",
      "name:de": "Jewpatorija",
      "name:en": "Yevpatoriya",
      "name:es": "Eupatoria",
      "name:et": "Jevpatorija",
      "name:fr": "Eupatoria",
      "name:he": "יבפטוריה",
      "name:hr": "Jevpatorija",
      "name:hu": "Jevpatorija",
      "name:it": "Eupatoria",
      "name:ko": "옙파토리야",
      "name:la": "Eupatoria",
      "name:lt": "Eupatorija",
      "name:mk": "Евпаторија",
      "name:ml": "യെവ്പട്ടോറിയ",
      "name:nl": "Jevpatorija",
      "name:pl": "Eupatoria",
      "name:prefix": "місто",
      "name:pt": "Yevpatoria",
      "name:ru": "Евпатория",
      "name:tr": "Kezlev",
      "name:uk": "Євпаторія",
      "name:zh-Hans": "叶夫帕托里亚",
      "name:zh-Hant": "葉夫帕托里亞",
      "official_status": "ru:город",
      "place": "city",
      "population": "108149",
      "population:date": "2021-01-01",
      "postal_code": "97400-97490",
      "wikidata": "Q33345",
      "wikipedia": "ru:Евпатория",
      "wikipedia:pl": "Eupatoria",
      "wikipedia:ru": "Евпатория",
      "wikipedia:uk": "Євпаторія"
    }
  },
  {
    "type": "node",
    "id": 29980666,
    "lat": 47.0957648,
    "lon": 37.5499621,
    "tags": {
      "katotth": "UA14140050010029262",
      "koatuu": "1412300000",
      "name": "Маріуполь",
      "name:am": "ማሪኡፖል",
      "name:ar": "ماريوبول",
      "name:ast": "Mariupol",
      "name:az": "Mariupol",
      "name:be": "Марыупаль",
      "name:be-tarask": "Марыюпаль",
      "name:bg": "Мариупол",
      "name:bn": "মরিউপল্",
      "name:ca": "Mariupol",
      "name:ce": "Мариуполь",
      "name:ckb": "ماریوپۆل",
      "name:crh": "Mariupol",
      "name:cs": "Mariupol",
      "name:cu": "Марїоуполь",
      "name:cv": "Мариуполь",
      "name:cy": "Mariupol",
      "name:da": "Mariupol",
      "name:de": "Mariupol",
      "name:el": "Μαριούπολη",
      "name:en": "Mariupol",
      "name:eo": "Mariupolo",
      "name:es": "Mariúpol",
      "name:et": "Mariupol",
      "name:eu": "Mariupol",
      "name:fa": "ماریوپول",
      "name:fi": "Mariupol",
      "name:fr": "Marioupol",
      "name:ga": "Mariupol",
      "name:gl": "Mariupol",
      "name:gu": "મરિઉપોલ",
      "name:he": "מריאופול",
      "name:hi": "मरिउपल",
      "name:hr": "Mariupolj",
      "name:hsb": "Mariupol",
      "name:hu": "Mariupol",
      "name:hy": "Մարիուպոլ",
      "name:id": "Mariupol",
      "name:io": "Mariupol",
      "name:it": "Mariupol'",
      "name:ja": "マリウポリ",
      "name:jv": "Mariupol",
      "name:ka": "მარიუპოლი",
      "name:kbd": "Мариупол",
      "name:kk": "Мариуполь",
      "name:kl": "Mariupol",
      "name:km": "ហ្មរិឩពឡ",
      "name:kn": "ಮರಿಉಪೊಲ್",
      "name:ko": "마리우폴",
      "name:ku": "Maryupol",
      "name:kv": "Мариуполь",
      "name:ky": "Мариуполь",
      "name:la": "Mariupolis",
      "name:lo": "ມະຣິວຸລ",
      "name:lt": "Mariupolis",
      "name:lv": "Mariupole",
      "name:mdf": "Мариуполь",
      "name:mk": "Мариупол",
      "name:ml": "മരിയുപോൾ",
      "name:mn": "Мариуполь",
      "name:mr": "मरिउपोल",
      "name:mrj": "Мариуполь",
      "name:ms": "Mariupol",
      "name:mt": "Mariupol",
      "name:my": "မရီဥပိုလ်",
      "name:nl": "Marioepol",
      "name:nn": "Mariupol",
      "name:no": "Mariupol",
      "name:oc": "Mariupol",
      "name:os": "Мариуполь",
      "name:pl": "Mariupol",
      "name:prefix": "місто",
      "name:pt": "Mariupol",
      "name:ro": "Mariupol",
      "name:ru": "Мариуполь",
      "name:rue": "Маріуполь",
      "name:sk": "Mariupoľ",
      "name:sl": "Mariupol",
      "name:sq": "Mariupol",
      "name:sr": "Маријупољ",
      "name:sv": "Mariupol",
      "name:sw": "Mariupol",
      "name:te": "మరిఉపొల్",
      "name:tg": "Мариуполь",
      "name:th": "มารีอูปัล",
      "name:ti": "ማሪኡፖል",
      "name:tk": "Mariupol",
      "name:tl": "Mariupol",
      "name:tr": "Mariupol",
      "name:uk": "Маріуполь",
      "name:ur": "مروپل",
      "name:uz": "Mariupol",
      "name:vep": "Mariupol'",
      "name:vi": "Mariupol",
      "name:vo": "Mariupol",
      "name:war": "Mariupol",
      "name:yi": "מאריופאל",
      "name:zh": "马里乌波尔",
      "place": "city",
      "population": "453623",
      "postal_code": "87500-87590",
      "website": "https://mariupolrada.gov.ua/",
      "wikidata": "Q37133",
      "wikipedia": "uk:Маріуполь"
    }
  },
  {
    "type": "node",
    "id": 39682896,
    "lat": 48.0158753,
    "lon": 37.8013407,
    "tags": {
      "alt_name:hu": "Donyeck",
      "capital": "4",
      "flag": "https://upload.wikimedia.org/wikipedia/commons/6/61/Flag_of_Donetsk.svg",
      "katotth": "UA14080030010048113",
      "koatuu": "1410100000",
      "name": "Донецьк",
      "name:af": "Donetsk",
      "name:ar": "دونيتسك",
      "name:ast": "Donetsk",
      "name:az": "Donetsk",
      "name:be": "Данецк",
      "name:be-tarask": "Данецк",
      "name:bg": "Донецк",
      "name:ca": "Donetsk",
      "name:ckb": "دۆنێتسک",
      "name:crh": "Donetsk",
      "name:cs": "Doněck",
      "name:cv": "Донецк",
      "name:da": "Donetsk",
      "name:de": "Donezk",
      "name:el": "Ντονέτσκ",
      "name:en": "Donetsk",
      "name:eo": "Donecko",
      "name:es": "Donetsk",
      "name:et": "Donetsk",
      "name:eu": "Donetsk",
      "name:fa": "دونتسک",
      "name:fi": "Donetsk",
      "name:fo": "Donetsk",
      "name:fr": "Donetsk",
      "name:gl": "Donetsk",
      "name:he": "דונצק",
      "name:hi": "डोनेट्स्क",
      "name:hr": "Donjeck",
      "name:hsb": "Doneck",
      "name:hu": "Doneck",
      "name:hy": "Դոնեցկ",
      "name:id": "Donetsk",
      "name:ie": "Donetsk",
      "name:io": "Donetsk",
      "name:it": "Donec'k",
      "name:ja": "ドネツィク",
      "name:jv": "Donetsk",
      "name:ka": "დონეცკი",
      "name:kk": "Донецк",
      "name:kl": "Donetsk",
      "name:ko": "도네츠크",
      "name:kv": "Донецк",
      "name:lt": "Doneckas",
      "name:lv": "Doņecka",
      "name:mhr": "Донецк",
      "name:ml": "ഡൊനെറ്റ്സ്ക്",
      "name:mr": "दोनेत्स्क",
      "name:nl": "Donetsk",
      "name:nn": "Donetsk",
      "name:no": "Donetsk",
      "name:os": "Донецк",
      "name:pap": "Donietsk",
      "name:pl": "Donieck",
      "name:pnb": "دونیتسک",
      "name:prefix": "місто",
      "name:pt": "Donetsk",
      "name:ro": "Donețk",
      "name:ru": "Донецк",
      "name:rue": "Донецьк",
      "name:scn": "Donetsk",
      "name:sco": "Donetsk",
      "name:sh": "Donjeck",
      "name:sk": "Doneck",
      "name:sr": "Доњецк",
      "name:sv": "Donetsk",
      "name:ta": "தோனெத்ஸ்க்",
      "name:th": "โดเนตสค์",
      "name:tr": "Donetsk",
      "name:tt": "Донецк",
      "name:tw": "Donetsk",
      "name:udm": "Донецк",
      "name:uk": "Донецьк",
      "name:vi": "Donetsk",
      "name:vo": "Donetsk",
      "name:war": "Donetsk",
      "name:zh": "顿涅茨克",
      "name:zh-Hans": "顿涅茨克",
      "name:zh-Hant": "頓涅茨克",
      "old_name": "Юзівка;Сталіно",
      "place": "city",
      "population": "929063",
      "postal_code": "83000-83490",
      "wikidata": "Q43070",
      "wikipedia": "uk:Донецьк"
    }
  },
  {
    "type": "node",
    "id": 60410873,
    "lat": 46.9758615,
    "lon": 31.9939666,
    "tags": {
      "alt_name:cs": "Nikolajev",
      "alt_name:en": "Nikolaev",
      "alt_name:he": "ניקולייב",
      "alt_name:hr": "Nikolajev",
      "alt_name:ko": "므콜라이우;므콜아이우;니콜라예프",
      "capital": "4",
      "ele": "21",
      "katotth": "UA48060150010035747",
      "koatuu": "4810100000",
      "name": "Миколаїв",
      "name:ar": "ميكولايف",
      "name:be": "Мікалаеў",
      "name:bg": "Николаев",
      "name:ckb": "میکۆلایڤ",
      "name:crh": "Мыколайив",
      "name:cs": "Mykolajiv",
      "name:de": "Mykolajiw",
      "name:el": "Μικολάιβ",
      "name:en": "Mykolaiv",
      "name:eo": "Nikolajevo",
      "name:es": "Mykoláiv",
      "name:et": "Mõkolajiv",
      "name:eu": "Mykolaiv",
      "name:fr": "Mykolaïv",
      "name:he": "מיקולאייב",
      "name:hr": "Mikolajiv",
      "name:hu": "Mikolajiv",
      "name:hy": "Նիկոլաև",
      "name:io": "Mykolaiv",
      "name:it": "Mykolaïv",
      "name:ja": "ムィコラーイウ",
      "name:ka": "ნიკოლაევი",
      "name:ko": "미콜라이우",
      "name:la": "Nicolaopolis Olbiopolitarum",
      "name:lt": "Mykolajivas",
      "name:lv": "Mikolajiva",
      "name:ml": "നിക്കോളേവ്",
      "name:nl": "Mykolajiv",
      "name:pl": "Mikołajów",
      "name:prefix": "місто",
      "name:ro": "Nicolaev",
      "name:ru": "Николаев",
      "name:rue": "Миколаїв",
      "name:sr": "Миколајив",
      "name:szl": "Mikołajůw",
      "name:tr": "Mıkolayiv",
      "name:uk": "Миколаїв",
      "name:vi": "Mykolaiv",
      "name:zh-Hans": "尼古拉耶夫",
      "name:zh-Hant": "尼古拉耶夫",
      "place": "city",
      "population": "480080",
      "population:date": "2018-05-01",
      "postal_code": "54000-54490",
      "source:population": "ГУС у Миколаївській області",
      "wikidata": "Q41572",
      "wikipedia": "uk:Миколаїв"
    }
  },
  {
    "type": "node",
    "id": 111353560,
    "lat": 48.6223731,
    "lon": 22.3022572,
    "tags": {
      "alt_name:de": "Ungwar",
      "alt_name:hr": "Užgorod",
      "capital": "4",
      "katotth": "UA21100230010016545",
      "koatuu": "2110100000",
      "name": "Ужгород",
      "name:be": "Ужгарад",
      "name:ckb": "ئوژھۆرۆد",
      "name:cs": "Užhorod",
      "name:de": "Uschhorod",
      "name:en": "Uzhhorod",
      "name:eo": "Uĵhorodo",
      "name:es": "Úzhgorod",
      "name:et": "Užgorod",
      "name:fr": "Oujhorod",
      "name:he": "אוז'הורוד",
      "name:hr": "Užhorod",
      "name:hu": "Ungvár",
      "name:it": "Užhorod",
      "name:ko": "우즈호로드",
      "name:ku": "Ujhorod",
      "name:la": "Uzhorodum",
      "name:mk": "Ужхород",
      "name:ml": "ഉജ്ഹൊരൊദ്",
      "name:nl": "Oezjhorod",
      "name:pl": "Użhorod",
      "name:prefix": "місто",
      "name:pt": "Uzhhorod",
      "name:ro": "Ujhorod",
      "name:ru": "Ужгород",
      "name:sk": "Užhorod",
      "name:sr": "Ужгород",
      "name:sv": "Uzjhorod",
      "name:uk": "Ужгород",
      "name:zh": "乌日霍罗德",
      "name:zh-Hans": "乌日霍罗德",
      "name:zh-Hant": "烏日霍羅德",
      "place": "city",
      "population": "114867",
      "postal_code": "88000-88018",
      "wikidata": "Q156711",
      "wikipedia": "uk:Ужгород"
    }
  },
  {
    "type": "node",
    "id": 146541158,
    "lat": 50.6196175,
    "lon": 26.2513165,
    "tags": {
      "alt_name:cs": "Rivne",
      "alt_name:ko": "리브네",
      "capital": "4",
      "katotth": "UA56060470010041018",
      "koatuu": "5610100000",
      "name": "Рівне",
      "name:be": "Роўна",
      "name:ckb": "ڕیڤنێ",
      "name:cs": "Rovno",
      "name:de": "Riwne",
      "name:en": "Rivne",
      "name:eo": "Rivno",
      "name:es": "Rivne",
      "name:et": "Rivne",
      "name:eu": "Rivne",
      "name:fr": "Rivne",
      "name:he": "רובנו",
      "name:hr": "Rivne",
      "name:hu": "Rivne",
      "name:it": "Rivne",
      "name:ko": "리우네",
      "name:ku": "Rîvnê",
      "name:lt": "Rivnė",
      "name:ml": "റിവ്നെ",
      "name:nl": "Rivne",
      "name:pl": "Równe",
      "name:prefix": "місто",
      "name:ro": "Rivne",
      "name:ru": "Ровно",
      "name:sr": "Ровно",
      "name:uk": "Рівне",
      "name:zh": "罗夫诺",
      "place": "city",
      "population": "245323",
      "postal_code": "33000-33499",
      "wikidata": "Q156739",
      "wikipedia": "uk:Рівне"
    }
  },
  {
    "type": "node",
    "id": 146570870,
    "lat": 50.7450733,
    "lon": 25.320078,
    "tags": {
      "admin_level": "4",
      "capital": "4",
      "int_name": "Łućk",
      "katotth": "UA07080170010083384",
      "koatuu": "0710100000",
      "name": "Луцьк",
      "name:af": "Loetsk",
      "name:ar": "لوتسك",
      "name:az": "Lutsk",
      "name:ba": "Луцк",
      "name:be": "Луцк",
      "name:bg": "Луцк",
      "name:ca": "Lutsk",
      "name:ce": "Луцк",
      "name:ckb": "لوتسک",
      "name:cs": "Luck",
      "name:cv": "Луцк",
      "name:da": "Lutsk",
      "name:de": "Luzk",
      "name:en": "Lutsk",
      "name:eo": "Lucko",
      "name:es": "Lutsk",
      "name:et": "Lutsk",
      "name:eu": "Lutsk",
      "name:fa": "لوتسک",
      "name:fi": "Lutsk",
      "name:fr": "Loutsk",
      "name:gl": "Lutsk",
      "name:he": "לוצק",
      "name:hr": "Luck",
      "name:hu": "Luck",
      "name:hy": "Լուցկ",
      "name:id": "Lutsk",
      "name:it": "Luc'k",
      "name:ja": "ルーツィク",
      "name:ka": "ლუცკი",
      "name:ko": "루츠크",
      "name:ku": "Lutsk",
      "name:ky": "Луцк",
      "name:la": "Luceoria",
      "name:lt": "Luckas",
      "name:lv": "Lucka",
      "name:mk": "Луцк",
      "name:ml": "ലുട്സ്ക്",
      "name:mn": "Луцк",
      "name:nl": "Loetsk",
      "name:nn": "Lutsk",
      "name:no": "Lutsk",
      "name:pl": "Łuck",
      "name:prefix": "місто",
      "name:pt": "Lutsk",
      "name:ro": "Luțk",
      "name:ru": "Луцк",
      "name:sk": "Luck",
      "name:sq": "Lutsk",
      "name:sr": "Луцк",
      "name:sv": "Lutsk",
      "name:tt": "Луцк",
      "name:uk": "Луцьк",
      "name:vi": "Lutsk",
      "name:yi": "לוצק",
      "name:zh": "盧茨克",
      "place": "city",
      "population": "217502",
      "postal_code": "43000-43499",
      "source": "landsat",
      "wikidata": "Q7550",
      "wikipedia": "uk:Луцьк"
    }
  },
  {
    "type": "node",
    "id": 249748477,
    "lat": 49.2320162,
    "lon": 28.467975,
    "tags": {
      "alt_name:cs": "Vinnica;Vinice",
      "alt_name:de": "Winniza",
      "alt_name:hr": "Vinica",
      "capital": "4",
      "katotth": "UA05020030010063857",
      "koatuu": "0510100000",
      "name": "Вінниця",
      "name:ar": "فينيتسا",
      "name:be": "Вінніца",
      "name:ckb": "ڤینیتسیا",
      "name:cs": "Vinnycja",
      "name:de": "Winnyzja",
      "name:en": "Vinnytsia",
      "name:eo": "Vinico",
      "name:es": "Vinnytsia",
      "name:et": "Vinnõtsja",
      "name:eu": "Vinnytsia",
      "name:fr": "Vinnytsia",
      "name:he": "ויניצה",
      "name:hr": "Vinicja",
      "name:hu": "Vinnicja",
      "name:it": "Vinnycja",
      "name:ko": "빈니차",
      "name:ku": "Vînîtisya",
      "name:la": "Vinnycia",
      "name:lt": "Vinycia",
      "name:ml": "വിന്നിറ്റ്സിയ",
      "name:nl": "Vinnytsja",
      "name:os": "Винницæ",
      "name:pl": "Winnica",
      "name:prefix": "місто",
      "name:ro": "Vinița",
      "name:ru": "Винница",
      "name:sr": "Виница",
      "name:szl": "Winńica",
      "name:tr": "Vinnitsya",
      "name:uk": "Вінниця",
      "name:zh": "文尼察",
      "place": "city",
      "population": "373302",
      "postal_code": "21000-21499",
      "wikidata": "Q157144",
      "wikipedia": "uk:Вінниця"
    }
  },
  {
    "type": "node",
    "id": 251073791,
    "lat": 44.6054434,
    "lon": 33.5220842,
    "tags": {
      "addr:region": "Севастополь",
      "addr:region:ru": "Севастополь",
      "addr:region:uk": "Севастополь",
      "alt_name:tr": "Sivastopol",
      "capital": "4",
      "int_name": "Sevastopol",
      "katotth": "UA85000000000065278",
      "koatuu": "8500000000",
      "name": "Севастополь",
      "name:ar": "سيفاستوبول",
      "name:br": "Sebastopol",
      "name:ca": "Sebastòpol",
      "name:ckb": "سێڤاستۆپۆل",
      "name:crh": "Aqyar",
      "name:cs": "Sevastopol",
      "name:de": "Sewastopol",
      "name:el": "Σεβαστούπολη",
      "name:en": "Sevastopol",
      "name:eo": "Sebastopolo",
      "name:es": "Sebastopol",
      "name:et": "Sevastopol",
      "name:eu": "Sebastopol",
      "name:fr": "Sébastopol",
      "name:he": "סבסטופול",
      "name:hr": "Sevastopolj",
      "name:hu": "Szevasztopol",
      "name:io": "Sevastopol",
      "name:it": "Sebastopoli",
      "name:ja": "セバストポリ",
      "name:kn": "ಸೆವಸ್ತೋಪೊಲ್",
      "name:ko": "세바스토폴",
      "name:ku": "Sêvastopol",
      "name:la": "Sebastopolis",
      "name:lt": "Sevastopolis",
      "name:lv": "Sevastopole",
      "name:mk": "Севастопол",
      "name:ml": "സെവാസ്റ്റോപോൾ",
      "name:nl": "Sebastopol",
      "name:pl": "Sewastopol",
      "name:prefix": "город",
      "name:pt": "Sebastopol",
      "name:ro": "Sevastopol",
      "name:ru": "Севастополь",
      "name:sk": "Sevastopoľ",
      "name:sr": "Севастопољ",
      "name:tr": "Akyar",
      "name:tt": "Акъяр",
      "name:uk": "Севастополь",
      "name:zh": "塞瓦斯托波尔",
      "name:zh-Hans": "塞瓦斯托波尔",
      "name:zh-Hant": "塞瓦斯托波爾",
      "note": "population дано по сумме Гагаринского, Ленинского, Нахимовского районов, без Инкермана, Балаклавы, Качи и сельских нп.",
      "official_status": "ru:город",
      "old_name": "Ахтиар",
      "place": "city",
      "population": "458253",
      "population:date": "2023-01-01",
      "source:name:br": "ofis publik ar brezhoneg",
      "website": "https://sevastopol.gov.ru/",
      "wikidata": "Q7525",
      "wikipedia": "ru:Севастополь",
      "wikipedia:pl": "Sewastopol",
      "wikipedia:ru": "Севастополь",
      "wikipedia:uk": "Севастополь"
    }
  },
  {
    "type": "node",
    "id": 251223522,
    "lat": 49.4196404,
    "lon": 26.9793793,
    "tags": {
      "alt_name:cs": "Chmelnický",
      "capital": "4",
      "katotth": "UA68040470010096613",
      "koatuu": "6810100000",
      "name": "Хмельницький",
      "name:af": "Chmelnitski",
      "name:ar": "خميلنيتسكي (أوكرانيا)",
      "name:az": "Xmelnitski",
      "name:ba": "Хмельницкий",
      "name:be": "Хмяльніцкі",
      "name:bg": "Хмелницки",
      "name:ca": "Khmelnitski",
      "name:ce": "Хмельницки",
      "name:cs": "Chmelnyckyj",
      "name:da": "Khmelnytskyj",
      "name:de": "Chmelnyzkyj",
      "name:en": "Khmelnytskyi",
      "name:eo": "Ĥmelnicko",
      "name:es": "Jmelnitski",
      "name:et": "Hmelnõtskõi",
      "name:eu": "Khmelnytsky",
      "name:fa": "خملنیتسکیی، اوکراین",
      "name:fi": "Hmelnytskyi",
      "name:fr": "Khmelnytsky",
      "name:he": "חמלניצקי",
      "name:hr": "Hmeljnicki",
      "name:hu": "Hmelnickij",
      "name:hy": "Խմելնիցկի",
      "name:id": "Khmelnytskyi",
      "name:it": "Chmel'nyc'kyj",
      "name:ja": "フメリヌィーツィクィイ",
      "name:ka": "ხმელნიცკი",
      "name:ko": "흐멜니츠키",
      "name:ky": "Хмельницкий",
      "name:la": "Chmielnicius",
      "name:lt": "Chmelnyckis",
      "name:lv": "Hmeļnicka",
      "name:ml": "ഖ്മെൽനിറ്റ്സ്കി",
      "name:nl": "Chmelnytsky",
      "name:nn": "Khmelnytskyj",
      "name:no": "Khmelnytskyj",
      "name:pl": "Chmielnicki",
      "name:prefix": "місто",
      "name:pt": "Khmelnytskyi",
      "name:ro": "Hmelnîțkîi",
      "name:ru": "Хмельницкий",
      "name:sk": "Chmeľnyckyj",
      "name:sl": "Hmelnicki",
      "name:sr": "Хмељницки",
      "name:sv": "Chmelnytskyj",
      "name:szl": "Chmjylńicki",
      "name:tt": "Хмельницкий",
      "name:uk": "Хмельницький",
      "name:vi": "Khmelnytskyi",
      "name:zh": "赫梅利尼茨基",
      "old_name:cs": "Proskuriv",
      "old_name:pl": "Płoskirów",
      "old_name:ru": "Проскуров",
      "place": "city",
      "population": "269308",
      "postal_code": "29000-29499",
      "wikidata": "Q156717",
      "wikipedia": "uk:Хмельницький"
    }
  },
  {
    "type": "node",
    "id": 252098339,
    "lat": 50.2601065,
    "lon": 28.6696281,
    "tags": {
      "alt_name:cs": "Žytomyr",
      "alt_name:ko": "즈토므르",
      "capital": "4",
      "katotth": "UA18040190010057814",
      "koatuu": "1810100000",
      "name": "Житомир",
      "name:ar": "جيتومير",
      "name:az": "Jitomir",
      "name:be": "Жытомір",
      "name:br": "Jitomir",
      "name:ca": "Jitòmir",
      "name:ckb": "ژیتۆمیر",
      "name:cs": "Žitomír",
      "name:cu": "Житомиръ",
      "name:da": "Zjytomyr",
      "name:de": "Schytomyr",
      "name:el": "Ζιτόμιρ",
      "name:en": "Zhytomyr",
      "name:eo": "Ĵitomiro",
      "name:es": "Zhytomyr",
      "name:et": "Žõtomõr",
      "name:eu": "Zhytomyr",
      "name:fa": "ژیتومیر",
      "name:fi": "Žytomyr",
      "name:fr": "Jytomyr",
      "name:gd": "Zhytomyr",
      "name:gl": "Zhitómir",
      "name:he": "ז'יטומיר",
      "name:hr": "Žitomir",
      "name:hsb": "Žytomyr",
      "name:hu": "Zsitomir",
      "name:hy": "Ժիտոմիր",
      "name:id": "Zhytomyr",
      "name:is": "Zjytómýr",
      "name:it": "Žytomyr",
      "name:ja": "ジトームィル",
      "name:ka": "ჟიტომირი",
      "name:ko": "지토미르",
      "name:ku": "Jîtomîr",
      "name:la": "Zitomiria",
      "name:lt": "Žytomyras",
      "name:lv": "Žitomira",
      "name:ml": "സൈറ്റോമിർ",
      "name:ms": "Zhytomyr",
      "name:nl": "Zjytomyr",
      "name:nn": "Zjytomyr",
      "name:no": "Zjytomyr",
      "name:oc": "Zhytòmyr",
      "name:pl": "Żytomierz",
      "name:prefix": "місто",
      "name:pt": "Jitomir",
      "name:ro": "Jîtomîr",
      "name:ru": "Житомир",
      "name:sk": "Žytomyr",
      "name:sr": "Житомир",
      "name:sv": "Zjytomyr",
      "name:ta": "சைதோமிர்",
      "name:th": "ฌือตอมือร์",
      "name:uk": "Житомир",
      "name:vi": "Zhytomyr",
      "name:wuu": "日托米尔",
      "name:yi": "זשיטאמיר",
      "name:yue": "怡陀米亞",
      "name:zh": "日托米爾",
      "place": "city",
      "population": "267610",
      "postal_code": "10000-10499",
      "wikidata": "Q156713",
      "wikipedia": "uk:Житомир"
    }
  },
  {
    "type": "node",
    "id": 252176252,
    "lat": 44.9521459,
    "lon": 34.1024858,
    "tags": {
      "addr:postcode": "295000-295490",
      "capital": "4",
      "katotth": "UA01160330010074014",
      "koatuu": "0110100000",
      "name": "Симферополь",
      "name:be": "Сімфэропаль",
      "name:ca": "Simferòpol",
      "name:ckb": "سیمفێرۆپۆل",
      "name:crh": "Aqmescit",
      "name:crh-cyr": "Акъмесджит",
      "name:cs": "Simferopol",
      "name:de": "Simferopol",
      "name:el": "Συμφερούπολη",
      "name:en": "Simferopol",
      "name:es": "Simferópol",
      "name:et": "Simferopol",
      "name:eu": "Simferopol",
      "name:fr": "Simferopol",
      "name:he": "סימפרופול",
      "name:hr": "Simferopolj",
      "name:hu": "Szimferopol",
      "name:it": "Sinferopoli",
      "name:ja": "シムフェローポリ",
      "name:ko": "심페로폴",
      "name:ku": "Sîmfêropol",
      "name:lt": "Simferopolis",
      "name:mk": "Симферопол",
      "name:ml": "സിംഫെറോപോൾ",
      "name:nl": "Simferopol",
      "name:pl": "Symferopol",
      "name:prefix": "город",
      "name:ro": "Simferopol",
      "name:ru": "Симферополь",
      "name:sk": "Simferopoľ",
      "name:sr": "Симферопољ",
      "name:tr": "Akmescit",
      "name:uk": "Сімферополь",
      "name:zh": "辛菲罗波尔 / 辛費羅波爾",
      "name:zh-Hans": "辛菲罗波尔",
      "name:zh-Hant": "辛費羅波爾",
      "official_status": "ru:город",
      "place": "city",
      "population": "340540",
      "population:date": "2021-01-01",
      "wikidata": "Q19566",
      "wikipedia": "ru:Симферополь",
      "wikipedia:ru": "Симферополь",
      "wikipedia:uk": "Сімферополь"
    }
  },
  {
    "type": "node",
    "id": 253874196,
    "lat": 48.5717084,
    "lon": 39.2973153,
    "tags": {
      "alt_name:cs": "Lugansk",
      "alt_name:en": "Lugansk",
      "alt_name:eo": "Lugansko",
      "alt_name:he": "לוגנסק",
      "capital": "4",
      "katotth": "UA44060010010012753",
      "koatuu": "4410100000",
      "name": "Луганськ",
      "name:ar": "لوغانسك",
      "name:az": "Luqansk",
      "name:be": "Луганск",
      "name:be-tarask": "Луганскае",
      "name:bg": "Луганск",
      "name:bs": "Lugansk",
      "name:ca": "Luhansk",
      "name:ckb": "لوھانسک",
      "name:crh": "Lugansk",
      "name:cs": "Luhansk",
      "name:da": "Luhansk",
      "name:de": "Luhansk",
      "name:en": "Luhansk",
      "name:eo": "Luhansko",
      "name:es": "Luhansk",
      "name:et": "Lugansk",
      "name:eu": "Lugansk",
      "name:fa": "لوهانسک",
      "name:fi": "Luhansk",
      "name:fr": "Louhansk",
      "name:gl": "Lugansk",
      "name:he": "לוהנסק",
      "name:hi": "लुहान्स्क",
      "name:hr": "Lugansk",
      "name:hsb": "Lugansk",
      "name:hu": "Luhanszk",
      "name:hy": "Լուգանսկ",
      "name:id": "Luhansk",
      "name:it": "Luhans'k",
      "name:ja": "ルハーンシク",
      "name:ka": "ლუგანსკი",
      "name:kl": "Luhansk",
      "name:ko": "루간스크 / 루한시크",
      "name:ku": "Luhansk",
      "name:lt": "Luganskas",
      "name:lv": "Luganska",
      "name:mk": "Луганск",
      "name:ml": "ലുഹാൻസ്ക്",
      "name:mn": "Луганск",
      "name:nl": "Loehansk",
      "name:nn": "Luhansk",
      "name:no": "Luhansk",
      "name:os": "Луганск",
      "name:pl": "Ługańsk",
      "name:pnb": "لوہانسک",
      "name:prefix": "місто",
      "name:pt": "Luhansk",
      "name:ro": "Luhansk",
      "name:ru": "Луганск",
      "name:rue": "Луганьск",
      "name:sco": "Luhansk",
      "name:sk": "Luhansk",
      "name:sr": "Луганск",
      "name:sv": "Luhansk",
      "name:szl": "Łuhańsk",
      "name:tr": "Lugansk",
      "name:uk": "Луганськ",
      "name:vi": "Luhansk",
      "name:vo": "Luhansk",
      "name:vro": "Lugansk",
      "name:war": "Luhansk",
      "name:zh": "卢甘斯克",
      "name:zh-Hans": "卢甘斯克",
      "name:zh-Hant": "盧甘斯克",
      "old_name": "Ворошиловград",
      "old_name:cs": "Vorošylovhrad;Vorošilovgrad",
      "old_name:en": "Voroshylovhrad;Voroshilovgrad",
      "old_name:uk": "Ворошиловград",
      "place": "city",
      "population": "414509",
      "postal_code": "91000-91479",
      "wikidata": "Q134279",
      "wikipedia": "uk:Луганськ"
    }
  },
  {
    "type": "node",
    "id": 253877159,
    "lat": 48.4701987,
    "lon": 38.8010178,
    "tags": {
      "katotth": "UA44020010010037242",
      "koatuu": "4411200000",
      "name": "Алчевськ",
      "name:ar": "ألتشيفسك",
      "name:bg": "Алчевск",
      "name:cs": "Alčevsk",
      "name:cv": "Алчевск",
      "name:de": "Altschewsk",
      "name:en": "Alchevsk",
      "name:eo": "Alĉevsk",
      "name:es": "Alchevsk",
      "name:et": "Altševsk",
      "name:fa": "آلچفسک",
      "name:fi": "Altševsk",
      "name:fr": "Altchevsk",
      "name:he": "אלצ'בסק",
      "name:hr": "Alčevsk",
      "name:hsb": "Alčewsk",
      "name:hu": "Alcsevszk",
      "name:id": "Alchevsk",
      "name:it": "Alčevs'k",
      "name:ko": "알체우시크",
      "name:lt": "Alčevskas",
      "name:nl": "Altsjevsk",
      "name:nn": "Altsjevsk",
      "name:pl": "Ałczewsk",
      "name:prefix": "місто",
      "name:ro": "Alcevsk",
      "name:ru": "Алчевск",
      "name:rue": "Алчевск",
      "name:simple": "Alchevsk",
      "name:sr": "Алчевск",
      "name:uk": "Алчевськ",
      "name:vi": "Alchevsk",
      "name:war": "Alchevsk",
      "name:zh": "阿尔切夫斯克",
      "old_name:he": "קומונארסק",
      "old_name:ru": "Коммунарск",
      "place": "city",
      "population": "112013",
      "postal_code": "94200-94299",
      "wikidata": "Q161144",
      "wikipedia": "uk:Алчевськ"
    }
  },
  {
    "type": "node",
    "id": 255259998,
    "lat": 49.7969703,
    "lon": 30.1158069,
    "tags": {
      "alt_name:cs": "Bila Cerkva",
      "katotth": "UA32020010010081183",
      "koatuu": "3210300000",
      "name": "Біла Церква",
      "name:ar": "بيلا تسيركفا",
      "name:be": "Белая Царква",
      "name:ckb": "بیلا تسێرکڤا",
      "name:cs": "Bílá Cerekev",
      "name:de": "Bila Zerkwa",
      "name:en": "Bila Tserkva",
      "name:eo": "Bila-Cerkva",
      "name:es": "Bila Tserkva",
      "name:et": "Bila Tserkva",
      "name:eu": "Bila Tserkva",
      "name:fr": "Bila Tserkva",
      "name:he": "בילה צרקווה",
      "name:hr": "Bila Cerkva",
      "name:hu": "Bila Cerkva",
      "name:it": "Bila Cerkva",
      "name:ko": "빌라 체르크바",
      "name:lt": "Bila Cerkva",
      "name:ml": "ബില സെർക്വ",
      "name:nl": "Bila Tserkva",
      "name:pl": "Biała Cerkiew",
      "name:prefix": "місто",
      "name:ro": "Bila Țerkva",
      "name:ru": "Белая Церковь",
      "name:sr": "Била Церква",
      "name:uk": "Біла Церква",
      "place": "city",
      "population": "209815",
      "postal_code": "09100-09117",
      "wikidata": "Q33342",
      "wikipedia": "uk:Біла Церква"
    }
  },
  {
    "type": "node",
    "id": 255466573,
    "lat": 46.6401295,
    "lon": 32.6143922,
    "tags": {
      "alt_name:el": "Χερσόνα",
      "capital": "4",
      "katotth": "UA65100150010064384",
      "koatuu": "6510100000",
      "name": "Херсон",
      "name:an": "Kherson",
      "name:ar": "خيرسون",
      "name:az": "Xerson",
      "name:ba": "Херсон",
      "name:be": "Херсон",
      "name:bg": "Херсон",
      "name:bn": "খেরসন",
      "name:ckb": "خێرسۆن",
      "name:cs": "Cherson",
      "name:cv": "Херсон",
      "name:de": "Cherson",
      "name:el": "Χερσώνα",
      "name:en": "Kherson",
      "name:eo": "Ĥersono",
      "name:es": "Jersón",
      "name:et": "Herson",
      "name:eu": "Kherson",
      "name:fa": "خرسون",
      "name:fi": "H’erson",
      "name:fr": "Kherson",
      "name:he": "חרסון",
      "name:hi": "खेरसॉन",
      "name:hr": "Herson",
      "name:hu": "Herszon",
      "name:hy": "Խերսոն",
      "name:it": "Cherson",
      "name:ja": "ヘルソン",
      "name:ka": "ხერსონი",
      "name:km": "ខឺសុន",
      "name:ko": "헤르손",
      "name:ku": "Xêrson",
      "name:ky": "Херсон",
      "name:la": "Chersonium",
      "name:li": "Cherson",
      "name:lt": "Chersonas",
      "name:lv": "Hersona",
      "name:ml": "ഖെർസൺ",
      "name:mn": "Херсон",
      "name:mr": "खेर्सन",
      "name:ms": "Kherson",
      "name:nl": "Cherson",
      "name:os": "Херсон",
      "name:pl": "Chersoń",
      "name:prefix": "місто",
      "name:pt": "Kherson",
      "name:ro": "Herson",
      "name:ru": "Херсон",
      "name:sd": "خيرسون",
      "name:sh": "Herson",
      "name:sk": "Cherson",
      "name:sl": "Herson",
      "name:sr": "Херсон",
      "name:sv": "Cherson",
      "name:szl": "Chersůń",
      "name:ta": "கெர்சன் நகரம்",
      "name:tr": "Herson",
      "name:tt": "Херсон",
      "name:uk": "Херсон",
      "name:ur": "خیرسون",
      "name:uz": "Xerson",
      "name:zh": "赫尔松",
      "place": "city",
      "population": "294941",
      "postal_code": "73000-73480",
      "wikidata": "Q156732",
      "wikipedia": "uk:Херсон"
    }
  },
  {
    "type": "node",
    "id": 256613740,
    "lat": 48.3058686,
    "lon": 38.0027664,
    "tags": {
      "alt_name:cs": "Gorlivka",
      "alt_name:de": "Gorlowka",
      "alt_name:en": "Gorlovka",
      "alt_name:hr": "Gorlovka",
      "alt_name:ko": "고를롭카",
      "alt_name:pt": "Gorlovka",
      "attribution": "travelgps.com.ua",
      "katotth": "UA14060030010082815",
      "koatuu": "1410600000",
      "name": "Горлівка",
      "name:ar": "هورليفكا",
      "name:az": "Qorlivka",
      "name:be": "Горлаўка",
      "name:be-tarask": "Горлаўка",
      "name:bg": "Горловка",
      "name:br": "Horlivka",
      "name:crh": "Gorlivka",
      "name:cs": "Horlivka",
      "name:de": "Horliwka",
      "name:en": "Horlivka",
      "name:eo": "Horlivka",
      "name:es": "Hórlivka",
      "name:et": "Gorlivka",
      "name:eu": "Horlivka",
      "name:fa": "هورلیفکا",
      "name:fi": "Horlivka",
      "name:fr": "Horlivka",
      "name:he": "הורליבקה",
      "name:hr": "Horlivka",
      "name:hsb": "Horliwka",
      "name:hu": "Horlivka",
      "name:id": "Horlivka",
      "name:it": "Horlivka",
      "name:ka": "ჰორლოვკა",
      "name:ko": "호를리우카",
      "name:lt": "Horlivka",
      "name:ml": "ഗോർലോവ്ക",
      "name:nl": "Horlivka",
      "name:nn": "Horlivka",
      "name:no": "Horlivka",
      "name:pl": "Gorłówka",
      "name:prefix": "місто",
      "name:ro": "Horlivka",
      "name:ru": "Горловка",
      "name:rue": "Горлівка",
      "name:sr": "Горловка",
      "name:sv": "Horlivka",
      "name:tr": "Horlivka",
      "name:tt": "Һорливка",
      "name:uk": "Горлівка",
      "name:vi": "Horlivka",
      "name:war": "Horlivka",
      "name:zh": "戈爾洛夫卡",
      "place": "city",
      "population": "289872",
      "postal_code": "84646",
      "start_date": "1779",
      "wikidata": "Q157260",
      "wikipedia": "uk:Горлівка"
    }
  },
  {
    "type": "node",
    "id": 256613930,
    "lat": 48.0448144,
    "lon": 37.9635093,
    "tags": {
      "alt_name:hr": "Makejevka",
      "attribution": "travelgps.com.ua",
      "katotth": "UA14080070010078220",
      "koatuu": "1413500000",
      "name": "Макіївка",
      "name:ar": "ماكيفكا",
      "name:ast": "Makiivka",
      "name:az": "Makeevka",
      "name:be": "Макееўка",
      "name:be-tarask": "Макееўка",
      "name:bg": "Макеевка",
      "name:crh": "Makiyivka",
      "name:cs": "Makijivka",
      "name:de": "Makijiwka",
      "name:en": "Makiivka",
      "name:eo": "Makijivka",
      "name:es": "Makiivka",
      "name:et": "Makijivka",
      "name:eu": "Makiivka",
      "name:fa": "ماکیئیفکا",
      "name:fi": "Makijivka",
      "name:fr": "Makiivka",
      "name:he": "מקייבקה",
      "name:hr": "Makijivka",
      "name:hsb": "Makijiwka",
      "name:hu": "Makiivka",
      "name:it": "Makiïvka",
      "name:ka": "მაკეევკა",
      "name:kl": "Makiivka",
      "name:ko": "마키이우카",
      "name:lt": "Makijivka",
      "name:lv": "Makijivka",
      "name:ml": "മക്കീവ്ക",
      "name:nl": "Makijivka",
      "name:nn": "Makijivka",
      "name:no": "Makijivka",
      "name:pl": "Makiejewka",
      "name:prefix": "місто",
      "name:pt": "Makiivka",
      "name:ro": "Makiivka",
      "name:ru": "Макеевка",
      "name:rue": "Макіївка",
      "name:sr": "Макејевка",
      "name:sv": "Makijivka",
      "name:tr": "Makiivka",
      "name:uk": "Макіївка",
      "name:vi": "Makiivka",
      "name:war": "Makiivka",
      "name:zh": "马克耶夫卡",
      "place": "city",
      "population": "347227",
      "postal_code": "86100-86180",
      "wikidata": "Q157134",
      "wikipedia": "uk:Макіївка"
    }
  },
  {
    "type": "node",
    "id": 256613986,
    "lat": 48.8522691,
    "lon": 37.6058241,
    "tags": {
      "alt_name:ko": "슬로브얀스크;슬로비얀스크;슬로브얀시크;슬로비얀시크",
      "attribution": "travelgps.com.ua",
      "flag": "http://upload.wikimedia.org/wikipedia/commons/c/ce/Flag_of_Sloviansk.svg",
      "katotth": "UA14120210010032554",
      "koatuu": "1414100000",
      "name": "Слов’янськ",
      "name:az": "Slovyansk",
      "name:be": "Славянск",
      "name:bg": "Славянск",
      "name:crh": "Slovyansk",
      "name:cs": "Slovjansk",
      "name:de": "Slowjansk",
      "name:en": "Sloviansk",
      "name:eo": "Slovjansko",
      "name:es": "Sláviansk",
      "name:et": "Slovjansk",
      "name:fa": "اسلوفیانسک",
      "name:fi": "Slovjansk",
      "name:fr": "Sloviansk",
      "name:he": "סלוביאנסק",
      "name:hr": "Slovjansk",
      "name:hsb": "Slowjansk",
      "name:hu": "Szlovjanszk",
      "name:it": "Slov\"jans'k",
      "name:ko": "슬로뱐시크",
      "name:lt": "Slovjanskas",
      "name:ml": "സ്ലാവ്യൻസ്ക്",
      "name:nl": "Slovjansk",
      "name:nn": "Slovjansk",
      "name:pl": "Słowiańsk",
      "name:prefix": "місто",
      "name:ro": "Sloviansk",
      "name:ru": "Славянск",
      "name:rue": "Словяньск",
      "name:sr": "Славјанск",
      "name:uk": "Слов’янськ",
      "name:vi": "Sloviansk",
      "name:war": "Sloviansk",
      "name:zh": "斯拉維揚斯克",
      "place": "city",
      "population": "114437",
      "postal_code": "84100-84129",
      "website": "http://www.slavrada.gov.ua/",
      "wikidata": "Q33581",
      "wikipedia": "uk:Слов'янськ"
    }
  },
  {
    "type": "node",
    "id": 258057686,
    "lat": 46.755678,
    "lon": 36.7887623,
    "tags": {
      "katotth": "UA23020050010019935",
      "koatuu": "2310400000",
      "name": "Бердянськ",
      "name:ar": "بيرديانسك",
      "name:ckb": "بێردیانسک",
      "name:cs": "Berďansk",
      "name:de": "Berdjansk",
      "name:en": "Berdiansk",
      "name:es": "Berdiansk",
      "name:et": "Berdjansk",
      "name:eu": "Berdiansk",
      "name:fr": "Berdiansk",
      "name:he": "ברדיאנסק",
      "name:hi": "बर्डियांस्क",
      "name:hr": "Berdjansk",
      "name:hu": "Bergyanszk",
      "name:it": "Berdjans'k",
      "name:ko": "베르댠스크",
      "name:ku": "Bêrdiyansk",
      "name:ml": "ബെർഡിയാൻസ്ക്",
      "name:nl": "Berdjansk",
      "name:pl": "Berdiańsk",
      "name:prefix": "місто",
      "name:ru": "Бердянск",
      "name:sk": "Berďansk",
      "name:sr": "Бердјанск",
      "name:tr": "Berdyansk",
      "name:uk": "Бердянськ",
      "place": "city",
      "population": "116450",
      "postal_code": "71100-71127",
      "wikidata": "Q33292",
      "wikipedia": "uk:Бердянськ"
    }
  },
  {
    "type": "node",
    "id": 265056942,
    "lat": 49.4447056,
    "lon": 32.0588085,
    "tags": {
      "capital": "4",
      "katotth": "UA71080490010015879",
      "koatuu": "7110100000",
      "name": "Черкаси",
      "name:be": "Чаркасы",
      "name:cs": "Čerkasy",
      "name:de": "Tscherkassy",
      "name:en": "Cherkasy",
      "name:es": "Cherkasy",
      "name:et": "Tšerkassõ",
      "name:eu": "Txerkasy",
      "name:fi": "Tšerkasy",
      "name:fr": "Tcherkassy",
      "name:he": "צ'רקאסי",
      "name:hr": "Čerkasi",
      "name:hu": "Cserkaszi",
      "name:it": "Čerkasy",
      "name:ko": "체르카시",
      "name:la": "Czercases",
      "name:ml": "ചെർക്കസി",
      "name:nl": "Tsjerkasy",
      "name:pl": "Czerkasy",
      "name:prefix": "місто",
      "name:pt": "Tcherkássi",
      "name:ro": "Cerkasî",
      "name:ru": "Черкассы",
      "name:sr": "Черкаси",
      "name:tr": "Çerkassi",
      "name:uk": "Черкаси",
      "name:zh": "切尔卡瑟",
      "place": "city",
      "population": "274343",
      "postal_code": "18000-18499",
      "wikidata": "Q157055",
      "wikipedia": "uk:Черкаси"
    }
  },
  {
    "type": "node",
    "id": 265057614,
    "lat": 50.9119775,
    "lon": 34.8027723,
    "tags": {
      "capital": "4",
      "katotth": "UA59080270010036634",
      "koatuu": "5910100000",
      "name": "Суми",
      "name:be": "Сумы",
      "name:ckb": "سومی",
      "name:cs": "Sumy",
      "name:de": "Sumy",
      "name:en": "Sumy",
      "name:eo": "Sumio",
      "name:es": "Sumy",
      "name:et": "Sumõ",
      "name:eu": "Sumy",
      "name:fr": "Soumy",
      "name:he": "סומי",
      "name:hr": "Sumi",
      "name:hu": "Szumi",
      "name:it": "Sumy",
      "name:ko": "수미",
      "name:ku": "Sumî",
      "name:ml": "സുമി",
      "name:nl": "Soemy",
      "name:pl": "Sumy",
      "name:prefix": "місто",
      "name:ro": "Sumî",
      "name:ru": "Сумы",
      "name:sr": "Суми",
      "name:tr": "Sumı",
      "name:uk": "Суми",
      "name:zh": "苏梅",
      "place": "city",
      "population": "267633",
      "postal_code": "40000-40489",
      "wikidata": "Q156752",
      "wikipedia": "uk:Суми"
    }
  },
  {
    "type": "node",
    "id": 265058149,
    "lat": 49.0629553,
    "lon": 33.403516,
    "tags": {
      "alt_name:cs": "Kremenčug",
      "alt_name:de": "Krementschug",
      "alt_name:sr": "Кременчуг",
      "alt_name:uz": "Kremenchug",
      "alt_name:zh": "克列緬丘格",
      "katotth": "UA53020110010031694",
      "koatuu": "5310400000",
      "name": "Кременчук",
      "name:ar": "كريمنشوك",
      "name:bg": "Кременчук",
      "name:cs": "Kremenčuk",
      "name:da": "Krementjuk",
      "name:de": "Krementschuk",
      "name:en": "Kremenchuk",
      "name:es": "Kremenchuk",
      "name:et": "Krementšuk",
      "name:eu": "Krementxuk",
      "name:fi": "Krementšuk",
      "name:fr": "Krementchouk",
      "name:he": "קרמנצ'וג",
      "name:hr": "Kremenčuk",
      "name:hu": "Kremencsuk",
      "name:it": "Kremenčuk",
      "name:ko": "크레멘추크",
      "name:lt": "Kremenčukas",
      "name:ml": "ക്രെമെൻചുക്ക്",
      "name:nl": "Krementsjoek",
      "name:pl": "Krzemieńczuk",
      "name:prefix": "місто",
      "name:ro": "Kremenciuk",
      "name:ru": "Кременчуг",
      "name:sr": "Кременчук",
      "name:sv": "Krementjuk",
      "name:uk": "Кременчук",
      "name:uz": "Kremenchuk",
      "name:zh": "克列缅丘克",
      "place": "city",
      "population": "226400",
      "postal_code": "39600-39689",
      "wikidata": "Q156724",
      "wikipedia": "uk:Кременчук"
    }
  },
  {
    "type": "node",
    "id": 265058407,
    "lat": 47.5692061,
    "lon": 34.3917272,
    "tags": {
      "addr:subdistrict": "Нікопольська міська громада",
      "katotth": "UA12080050010010114",
      "koatuu": "1211600000",
      "name": "Нікополь",
      "name:ckb": "نیکۆپۆل",
      "name:cs": "Nikopol",
      "name:de": "Nikopol",
      "name:en": "Nikopol",
      "name:eo": "Nikopol",
      "name:es": "Níkopol",
      "name:et": "Nikopol",
      "name:fr": "Nikopol",
      "name:he": "ניקופול",
      "name:hr": "Nikopolj",
      "name:hu": "Nyikopol",
      "name:ko": "니코폴",
      "name:ku": "Nîkopol",
      "name:ml": "നിക്കോപോൾ",
      "name:nl": "Nikopol",
      "name:pl": "Nikopol",
      "name:prefix": "місто",
      "name:ru": "Никополь",
      "name:sk": "Nikopol",
      "name:uk": "Нікополь",
      "name:zh": "尼科波尔",
      "place": "city",
      "population": "119939",
      "postal_code": "53200-53239",
      "wikidata": "Q156760",
      "wikipedia": "uk:Нікополь"
    }
  },
  {
    "type": "node",
    "id": 265059962,
    "lat": 48.5316759,
    "lon": 35.8703695,
    "tags": {
      "addr:subdistrict": "Павлоградська міська громада",
      "alt_name:cs": "Pavlograd",
      "alt_name:de": "Paulograd",
      "alt_name:es": "Pavlogrado",
      "alt_name:hr": "Pavlograd",
      "katotth": "UA12120070010055676",
      "koatuu": "1212400000",
      "name": "Павлоград",
      "name:ar": "بافلوجراد",
      "name:arz": "بافلوجراد",
      "name:azb": "پاولوهراد",
      "name:be": "Паўлаград",
      "name:be-tarask": "Паўлаград",
      "name:bg": "Павлоград",
      "name:cs": "Pavlohrad",
      "name:de": "Pawlohrad",
      "name:en": "Pavlohrad",
      "name:eo": "Pavlohrad",
      "name:es": "Pavlohrad",
      "name:et": "Pavlograd",
      "name:eu": "Pavlohrad",
      "name:fa": "پاولوهراد",
      "name:fr": "Pavlohrad",
      "name:he": "פאבלוהראד",
      "name:hr": "Pavlohrad",
      "name:hsb": "Pawlohrad",
      "name:hu": "Pavlohrad",
      "name:it": "Pavlohrad",
      "name:ko": "파울로흐라드",
      "name:lt": "Pavlohradas",
      "name:lv": "Pavlohrada",
      "name:ml": "പാവ്ലോഗ്രാഡ്",
      "name:nl": "Pavlohrad",
      "name:pl": "Pawłohrad",
      "name:prefix": "місто",
      "name:ru": "Павлоград",
      "name:sr": "Павлоград",
      "name:uk": "Павлоград",
      "name:zh": "巴甫洛赫拉德",
      "place": "city",
      "population": "110609",
      "postal_code": "51400-51429",
      "wikidata": "Q237206",
      "wikipedia": "uk:Павлоград"
    }
  },
  {
    "type": "node",
    "id": 268081010,
    "lat": 48.6781294,
    "lon": 26.5854027,
    "tags": {
      "katotth": "UA68020110010097898",
      "koatuu": "6810400000",
      "name": "Кам’янець-Подільський",
      "name:be": "Камянец-Падольскі",
      "name:cs": "Kamenec Podolský",
      "name:de": "Kamjanez-Podilskyj",
      "name:en": "Kamianets-Podilskyi",
      "name:eo": "Kamjanec-Podilskij",
      "name:es": "Kamianets-Podilski",
      "name:et": "Kamjanets-Podilskõi",
      "name:eu": "Kamianets-Podilsky",
      "name:fr": "Kamianets-Podilskyï",
      "name:he": "קמניץ-פודולסקי",
      "name:hr": "Kamjanec-Podiljski",
      "name:hu": "Kamjanec-Pogyilszkij",
      "name:it": "Kam\"janec'-Podil's'kyj",
      "name:ko": "카미야네츠포딜스키",
      "name:nl": "Kamjanets-Podilsky",
      "name:pl": "Kamieniec Podolski",
      "name:prefix": "місто",
      "name:ro": "Cameniţa",
      "name:ru": "Каменец-Подольский",
      "name:sr": "Каменица",
      "name:tr": "Kamaniçe",
      "name:uk": "Кам’янець-Подільський",
      "old_name": "Кам’янець",
      "place": "city",
      "population": "101235",
      "postal_code": "32300-32315",
      "wikidata": "Q193965",
      "wikipedia": "uk:Кам'янець-Подільський"
    }
  },
  {
    "type": "node",
    "id": 268459612,
    "lat": 48.9224763,
    "lon": 24.710334,
    "tags": {
      "alt_name:cs": "Ivano-Frankovsk",
      "alt_name:ko": "이바노프란키우스크",
      "alt_name:pl": "Iwano-Frankiwśk",
      "capital": "4",
      "katotth": "UA26040190010045761",
      "koatuu": "2610100000",
      "name": "Івано-Франківськ",
      "name:az": "İvano-Frankovsk",
      "name:be": "Івана-Франкоўск",
      "name:bg": "Ивано-Франковск",
      "name:ca": "Ivano-Frankivsk",
      "name:ckb": "ئیڤانۆ-فرانکیڤسک",
      "name:crh": "İvano-Frankivsk",
      "name:cs": "Ivano-Frankivsk",
      "name:da": "Ivano-Frankivsk",
      "name:de": "Iwano-Frankiwsk",
      "name:en": "Ivano-Frankivsk",
      "name:eo": "Ivano-Frankivsk",
      "name:es": "Ivano-Frankivsk",
      "name:et": "Ivano-Frankivsk",
      "name:eu": "Ivano-Frankivsk",
      "name:fa": "ایوانو-فرانکیفسک",
      "name:fi": "Ivano-Frankivsk",
      "name:fr": "Ivano-Frankivsk",
      "name:he": "איוונו-פרנקיבסק",
      "name:hr": "Ivano-Frankivsk",
      "name:hsb": "Iwano-Frankiwsk",
      "name:hu": "Ivano-Frankivszk",
      "name:id": "Ivano-Frankivsk",
      "name:it": "Ivano-Frankivs'k",
      "name:ja": "イヴァーノ＝フランキーウシク",
      "name:ka": "ივანო-ფრანკოვსკი",
      "name:ko": "이바노프란키우시크",
      "name:ku": "Îvano-Frankîvsk",
      "name:la": "Ivano-Frankivscum",
      "name:lt": "Ivano Frankivskas",
      "name:lv": "Ivanofrankivska",
      "name:ml": "ഇവാനോ-ഫ്രാങ്കിവ്സ്ക്",
      "name:nl": "Ivano-Frankivsk",
      "name:no": "Ivano-Frankivsk",
      "name:pl": "Iwano-Frankiwsk",
      "name:pnb": "ایوانو فرانکیوسک",
      "name:prefix": "місто",
      "name:ro": "Ivano-Frankivsk",
      "name:ru": "Ивано-Франковск",
      "name:rue": "Івано-Франківск",
      "name:sk": "Ivano-Frankivsk",
      "name:sr": "Ивано-Франкивск",
      "name:sv": "Ivano-Frankivsk",
      "name:tr": "İvano-Frankivsk",
      "name:uk": "Івано-Франківськ",
      "name:vi": "Ivano-Frankivsk",
      "name:war": "Ivano-Frankivsk",
      "name:zh": "伊万诺-弗兰科夫斯克",
      "old_name": "Станиславів",
      "old_name:cs": "Stanislav;Stanislavov",
      "old_name:de": "Stanislau",
      "old_name:hu": "Sztanyiszló",
      "old_name:ko": "스타니스와부프",
      "old_name:la": "Stanislavopolis",
      "old_name:pl": "Stanisławów",
      "old_name:ru": "Станислав",
      "place": "city",
      "population": "230929",
      "postal_code": "76000-76490",
      "wikidata": "Q156726",
      "wikipedia": "uk:Івано-Франківськ"
    }
  },
  {
    "type": "node",
    "id": 274929523,
    "lat": 48.7389415,
    "lon": 37.5843812,
    "tags": {
      "attribution": "travelgps.com.ua",
      "int_name": "Kramators'k",
      "katotth": "UA14120090010038661",
      "koatuu": "1412900000",
      "name": "Краматорськ",
      "name:ar": "كراماتورسك",
      "name:cs": "Kramatorsk",
      "name:de": "Kramatorsk",
      "name:en": "Kramatorsk",
      "name:eo": "Kramatorsko",
      "name:es": "Kramatorsk",
      "name:et": "Kramatorsk",
      "name:fr": "Kramatorsk",
      "name:he": "קראמטורסק",
      "name:hr": "Kramatorsk",
      "name:hu": "Kramatorszk",
      "name:it": "Kramators'k",
      "name:ko": "크라마토르스크",
      "name:ml": "ക്രാമാറ്റോർസ്ക്",
      "name:nl": "Kramatorsk",
      "name:pl": "Kramatorsk",
      "name:prefix": "місто",
      "name:ru": "Краматорск",
      "name:sr": "Краматорск",
      "name:uk": "Краматорськ",
      "place": "city",
      "population": "159445",
      "postal_code": "84300-84390",
      "website": "http://www.krm.gov.ua",
      "wikidata": "Q33613",
      "wikipedia": "uk:Краматорськ"
    }
  },
  {
    "type": "node",
    "id": 337579368,
    "lat": 48.9478698,
    "lon": 38.4936475,
    "tags": {
      "alt_name:cs": "Severodoněck",
      "alt_name:en": "Severodonetsk",
      "alt_name:hr": "Severodonjeck",
      "alt_name:ko": "세베로도네츠크",
      "contact:website": "http://www.sed-rada.gov.ua",
      "ele": "71",
      "katotth": "UA44120110010072887",
      "koatuu": "4412900000",
      "name": "Сєвєродонецьк",
      "name:ar": "سفرودونتسك",
      "name:ast": "Sievierodonetsk",
      "name:azb": "سیورودونتسک",
      "name:ba": "Северодонецк",
      "name:be": "Севераданэцк",
      "name:bg": "Северодонецк",
      "name:ca": "Sievierodonetsk",
      "name:ce": "Северодонецк",
      "name:ceb": "Syevyerodonets'k",
      "name:crh": "Severodonetsk",
      "name:cs": "Sjevjerodoneck",
      "name:da": "Severodonetsk",
      "name:de": "Sjewjerodonezk",
      "name:el": "Σιεβιεροντονέτσκ",
      "name:en": "Sievierodonetsk",
      "name:eo": "Severodoneck",
      "name:es": "Severodonetsk",
      "name:et": "Sjeverodonetsk",
      "name:eu": "Sievierodonetsk",
      "name:fa": "سیورودونتسک",
      "name:fi": "Sjevjerodonetsk",
      "name:fr": "Sievierodonetsk",
      "name:he": "סוורודונצק",
      "name:hr": "Sjevjerodoneck",
      "name:hsb": "Sjewjerodoneck",
      "name:hu": "Szjevjerodoneck",
      "name:hy": "Սևերոդոնեցկ",
      "name:it": "Sjevjerodonec'k",
      "name:ja": "セヴェロドネツィク",
      "name:ka": "სევეროდონეცკი",
      "name:ko": "셰볘로도네츠크",
      "name:lt": "Sjeverodoneckas",
      "name:lv": "Severodonecka",
      "name:mhr": "Северодонецк",
      "name:ml": "സെവെറോഡോനെറ്റ്സ്ക്",
      "name:mr": "सीवेरोदोनेत्स्क",
      "name:nl": "Sjevjerodonetsk",
      "name:nn": "Sievjerodonetsk",
      "name:no": "Sievjerodonetsk",
      "name:os": "Северодонецк",
      "name:pl": "Siewierodonieck",
      "name:prefix": "місто",
      "name:pt": "Severodonetsk",
      "name:ro": "Severodonețk",
      "name:ru": "Северодонецк",
      "name:rue": "Северодонецьк",
      "name:sco": "Sievierodonetsk",
      "name:sr": "Северодоњецк",
      "name:sv": "Severodonetsk",
      "name:th": "เซียเวียรอดอแนตสก์",
      "name:tr": "Syevyerodonetsk",
      "name:tt": "Северодонецк",
      "name:udm": "Северодонецк",
      "name:uk": "Сєвєродонецьк",
      "name:uz": "Severodonetsk",
      "name:vi": "Sieverodonetsk",
      "name:war": "Sieverodonetsk",
      "name:zh": "北頓涅茨克",
      "old_name": "Лісхімстрой",
      "old_name:cs": "Lischimstroj",
      "old_name:en": "Liskhimstroy",
      "old_name:ko": "리스힘스트로이",
      "old_name:ru": "Лисхимстрой",
      "place": "city",
      "population": "110612",
      "postal_code": "93400-93480",
      "start_date": "1934-04-29",
      "wikidata": "Q160584",
      "wikipedia": "uk:Сєвєродонецьк",
      "wikipedia:ru": "Северодонецк"
    }
  },
  {
    "type": "node",
    "id": 337582086,
    "lat": 48.917267,
    "lon": 38.4285981,
    "tags": {
      "alt_name:cs": "Lisičansk",
      "alt_name:hr": "Lisičanjsk",
      "katotth": "UA44120050010021900",
      "koatuu": "4411800000",
      "name": "Лисичанськ",
      "name:ar": "ليسيتشانسك",
      "name:ast": "Lysychansk",
      "name:az": "Lisiçansk",
      "name:azb": "لیسیچانسک",
      "name:be": "Лісічанск",
      "name:bg": "Лисичанск",
      "name:ca": "Lissitxansk",
      "name:ce": "Лисичанск",
      "name:ceb": "Lysychans'k",
      "name:crh": "Lısıçansk",
      "name:cs": "Lysyčansk",
      "name:da": "Lysytjansk",
      "name:de": "Lyssytschansk",
      "name:en": "Lysychansk",
      "name:eo": "Lisiĉansk",
      "name:es": "Lisichansk",
      "name:et": "Lõssõtšansk",
      "name:eu": "Lysytxansk",
      "name:fa": "لیسیچانسک",
      "name:fi": "Lysytšansk",
      "name:fr": "Lyssytchansk",
      "name:he": "ליסצ'נסק",
      "name:hr": "Lisičansk",
      "name:hsb": "Lysyčansk",
      "name:hu": "Liszicsanszk",
      "name:hy": "Լիսիչանսկ",
      "name:it": "Lysyčans'k",
      "name:ja": "リシチャンシク",
      "name:ka": "ლისიჩანსკი",
      "name:ko": "리시찬스크",
      "name:ky": "Лисичанск",
      "name:lt": "Lysyčanskas",
      "name:lv": "Lisičanska",
      "name:mhr": "Лисичанск",
      "name:nl": "Lysytsjansk",
      "name:nn": "Lysytsjansk",
      "name:no": "Lysytsjansk",
      "name:os": "Лисичанск",
      "name:pl": "Lisiczańsk",
      "name:prefix": "місто",
      "name:pt": "Lysychansk",
      "name:ro": "Lisiciansk",
      "name:ru": "Лисичанск",
      "name:rue": "Лисичаньск",
      "name:sco": "Lysychansk",
      "name:sr": "Лисичанск",
      "name:th": "ลือซือชันสก์",
      "name:tr": "Lısıçansk",
      "name:tt": "Лисичанск",
      "name:udm": "Лисичанск",
      "name:uk": "Лисичанськ",
      "name:vep": "Lisičansk",
      "name:vi": "Lysychansk",
      "name:war": "Lysychansk",
      "name:zh": "利西昌斯克",
      "place": "city",
      "population": "105682",
      "postal_code": "93100",
      "wikidata": "Q33280",
      "wikipedia": "uk:Лисичанськ"
    }
  },
  {
    "type": "node",
    "id": 337597818,
    "lat": 48.4680221,
    "lon": 35.0417711,
    "tags": {
      "addr:postcode": "49000",
      "addr:subdistrict": "Дніпровська міська громада",
      "alt_name:be": "Дняпро",
      "alt_name:cs": "Dněpr",
      "alt_name:tr": "Dnipro",
      "capital": "4",
      "flag": "http://upload.wikimedia.org/wikipedia/commons/7/72/Flag_of_Dnipropetrovsk.svg",
      "katotth": "UA12020010010037010",
      "koatuu": "1210100000",
      "name": "Дніпро",
      "name:ar": "دنيبرو",
      "name:azb": "دنیپرو",
      "name:be": "Дніпро",
      "name:be-tarask": "Дніпро",
      "name:ckb": "دنیپرۆ",
      "name:cs": "Dnipro",
      "name:de": "Dnipro",
      "name:el": "Ντνίπρο",
      "name:en": "Dnipro",
      "name:es": "Dnipró",
      "name:et": "Dnipro",
      "name:eu": "Dnipro",
      "name:fr": "Dnipro",
      "name:he": "דניפרו",
      "name:hi": "दनीप्रो",
      "name:hr": "Dnjipro",
      "name:hu": "Dnyipro",
      "name:it": "Dnipro",
      "name:ja": "ドニプロ",
      "name:ko": "드니프로",
      "name:ml": "ഡിനിപ്രോ",
      "name:nl": "Dnipro",
      "name:oc": "Dnipro",
      "name:pl": "Dniepr",
      "name:prefix": "місто",
      "name:ro": "Dnipro",
      "name:ru": "Днепр",
      "name:sk": "Dnipro",
      "name:sr": "Дњепро",
      "name:tr": "Dinipro",
      "name:uk": "Дніпро",
      "name:ur": "دنیپرو",
      "name:zh": "第聂伯罗",
      "old_name": "Дніпропетровськ",
      "old_name:ar": "دنبروبتروفسك",
      "old_name:be": "Днепрапятроўск",
      "old_name:ca": "Dnipropetrovsk",
      "old_name:cs": "Dněpropetrovsk;Jekatěrinoslav",
      "old_name:de": "Dnipropetrowsk;Jekaterinoslaw",
      "old_name:en": "Dnipropetrovsk;Yekaterinoslav",
      "old_name:es": "Dnipropetrovsk;Yekaterinoslav",
      "old_name:fr": "Dnipropetrovsk",
      "old_name:hi": "द्नेप्रोपेत्रोव्स्क",
      "old_name:hr": "Dnjepropetrovsk",
      "old_name:hu": "Dnyipropetrovszk",
      "old_name:kn": "ದ್ನೇಪ್ರೋಪೇತ್ರೋವ್ಸ್ಕ",
      "old_name:ko": "드네프로페트롭스크",
      "old_name:lt": "Dniepropetrovskas",
      "old_name:nl": "Dnipropetrovsk",
      "old_name:pl": "Dniepropetrowsk",
      "old_name:ru": "Днепропетровск",
      "old_name:sk": "Dnepropetrovsk",
      "old_name:sr": "Дњепропетровск",
      "old_name:uk": "Дніпропетровськ",
      "place": "city",
      "population": "1080486",
      "postal_code": "49000",
      "postal_codes": "49000-49489",
      "source:name": "http://w1.c1.rada.gov.ua/pls/zweb2/webproc4_1?pf3511=58016",
      "source:old_name:oc": "Lo Congrès",
      "wikidata": "Q48256",
      "wikipedia": "uk:Дніпро (місто)"
    }
  },
  {
    "type": "node",
    "id": 428339505,
    "lat": 48.2864702,
    "lon": 25.9376532,
    "tags": {
      "alt_name:cs": "Černivci",
      "alt_name:de": "Tschernowitz",
      "capital": "4",
      "katotth": "UA73060610010033137",
      "koatuu": "7310100000",
      "name": "Чернівці",
      "name:be": "Чарнаўцы",
      "name:cs": "Černovice",
      "name:de": "Czernowitz",
      "name:en": "Chernivtsi",
      "name:eo": "Ĉernivco",
      "name:es": "Chernivtsí",
      "name:et": "Tšernivtsi",
      "name:eu": "Txernivtsi",
      "name:fr": "Tchernivtsi",
      "name:he": "צ'רנוביץ",
      "name:hr": "Černivci",
      "name:hsb": "Černowicy",
      "name:hu": "Csernyivci",
      "name:it": "Černivci",
      "name:ko": "체르니우치",
      "name:ml": "ചെർനിവറ്റ്സി",
      "name:nl": "Tsjernivtsi",
      "name:pl": "Czerniowce",
      "name:prefix": "місто",
      "name:ro": "Cernăuți",
      "name:ru": "Черновцы",
      "name:sr": "Чернивци",
      "name:uk": "Чернівці",
      "old_name:ko": "체르노프치",
      "old_name:ko:1774-1918": "체르노비츠",
      "old_name:ko:1918-1944": "체르너우치",
      "place": "city",
      "population": "266650",
      "website": "http://www.chernivtsy.cv.ua/",
      "wikidata": "Q157725",
      "wikipedia": "uk:Чернівці"
    }
  },
  {
    "type": "node",
    "id": 1532708613,
    "lat": 47.9102734,
    "lon": 33.3917703,
    "tags": {
      "alt_name:he": "קריבוי רוג",
      "alt_name:ko": "크리보이로크",
      "alt_name:zh": "克里沃伊罗格",
      "katotth": "UA12060170010065850",
      "koatuu": "1211000000",
      "name": "Кривий Ріг",
      "name:ar": "كريفي ريه",
      "name:az": "Krıvıy Riğ",
      "name:be": "Крывы Рог",
      "name:bg": "Кривой Рог",
      "name:ca": "Kryviy Rih",
      "name:cs": "Kryvyj Rih",
      "name:de": "Krywyj Rih",
      "name:en": "Kryvyi Rih",
      "name:eo": "Krivij-Rih",
      "name:es": "Kryviy Rih",
      "name:et": "Krõvõi Rig",
      "name:eu": "Kryvyi Rih",
      "name:fr": "Kryvyï Rih",
      "name:he": "קריבי ריה",
      "name:hr": "Krivij Rih",
      "name:hu": "Krivij Rih",
      "name:io": "Kryvyi Rih",
      "name:it": "Kryvyj Rih",
      "name:ja": "クリヴォログ",
      "name:ko": "크리비리흐",
      "name:lb": "Kriviy Rig",
      "name:lt": "Kryvyj Rihas",
      "name:ml": "ക്രിവി റിഹ്",
      "name:nl": "Kryvy Rih",
      "name:pl": "Krzywy Róg",
      "name:prefix": "місто",
      "name:ro": "Kryvyi Rih",
      "name:ru": "Кривой Рог",
      "name:sr": "Криви Рог",
      "name:tr": "Kryvyi Rih",
      "name:uk": "Кривий Ріг",
      "name:yi": "או קריבוי רוג",
      "name:zh": "克里沃罗格",
      "old_name:ar": "كريفيي ريه",
      "old_name:az": "Krivoy Roq",
      "old_name:ca": "Krivoy Rog",
      "old_name:cs": "Krivoj Rog",
      "old_name:de": "Kriwoi Rog",
      "old_name:en": "Krivoy Rog",
      "old_name:es": "Krivoy Rog",
      "old_name:ro": "Krivoi Rog",
      "place": "city",
      "population": "656700",
      "postal_code": "50000-50479",
      "wikidata": "Q157137",
      "wikipedia": "uk:Кривий Ріг"
    }
  },
  {
    "type": "node",
    "id": 1643945522,
    "lat": 49.5557908,
    "lon": 25.5923753,
    "tags": {
      "admin_level": "6",
      "alt_name:he": "טרנופיל",
      "capital": "4",
      "katotth": "UA61040490010069060",
      "koatuu": "6110100000",
      "name": "Тернопіль",
      "name:be": "Цярнопаль",
      "name:de": "Tarnopol",
      "name:en": "Ternopil",
      "name:eo": "Ternopilo",
      "name:es": "Ternópil",
      "name:et": "Ternopil",
      "name:eu": "Ternopil",
      "name:fr": "Ternopil",
      "name:he": "טרנופול",
      "name:hr": "Ternopilj",
      "name:hu": "Ternopil",
      "name:io": "Ternopil",
      "name:it": "Ternopil'",
      "name:ko": "테르노필",
      "name:lt": "Ternopilis",
      "name:ml": "ടെർനോപിൽ",
      "name:nl": "Ternopil",
      "name:pl": "Tarnopol",
      "name:prefix": "місто",
      "name:ro": "Ternopil",
      "name:ru": "Тернополь",
      "name:sr": "Тернопољ",
      "name:uk": "Тернопіль",
      "name:uk:word_stress": "Терно́піль",
      "place": "city",
      "population": "217326",
      "postal_code": "46000-46499",
      "wikidata": "Q156743",
      "wikipedia": "uk:Тернопіль"
    }
  },
  {
    "type": "node",
    "id": 1685829423,
    "lat": 49.9923181,
    "lon": 36.2310146,
    "tags": {
      "alt_name:cs": "Charkiv",
      "alt_name:el": "Χαρκίβ",
      "alt_name:en": "Kharkov",
      "alt_name:es": "Járkov",
      "alt_name:he": "חרקיב",
      "alt_name:ja": "ハリコフ",
      "alt_name:ko": "하리코프",
      "alt_name:nl": "Charkiv",
      "capital": "4",
      "katotth": "UA63120270010096107",
      "koatuu": "6310100000",
      "name": "Харків",
      "name:ar": "خاركيف",
      "name:be": "Харкаў",
      "name:br": "C'harkiv",
      "name:ca": "Khàrkiv",
      "name:ckb": "خارکیڤ",
      "name:cs": "Charkov",
      "name:de": "Charkiw",
      "name:el": "Χάρκοβο",
      "name:en": "Kharkiv",
      "name:es": "Járkiv",
      "name:et": "Harkiv",
      "name:eu": "Kharkiv",
      "name:fi": "Harkova",
      "name:fr": "Kharkiv",
      "name:he": "חרקוב",
      "name:hi": "ख़ारकिव",
      "name:hr": "Harkiv",
      "name:hu": "Harkiv",
      "name:it": "Charkiv",
      "name:ja": "ハルキウ",
      "name:kn": "ಖಾರ್ಕಿವ",
      "name:ko": "하르키우",
      "name:ku": "Xarkîv",
      "name:la": "Charcovia",
      "name:lv": "Harkiva",
      "name:ml": "ഖാർകിവ്",
      "name:nl": "Charkov",
      "name:oc": "Kharkiv",
      "name:pl": "Charków",
      "name:prefix": "місто",
      "name:pt": "Carcóvia",
      "name:ro": "Harkov",
      "name:ru": "Харьков",
      "name:sk": "Charkov",
      "name:sl": "Harkov",
      "name:sr": "Харков",
      "name:sv": "Charkiv",
      "name:tr": "Harkiv",
      "name:tt": "Харкау",
      "name:uk": "Харків",
      "name:zh": "哈尔科夫",
      "name:zh-Hans": "哈尔科夫",
      "name:zh-Hant": "哈爾科夫",
      "old_name:fi": "Harkova",
      "old_name:hr": "Harkov",
      "old_name:lv": "Harkova",
      "old_name:sk": "Charkov",
      "place": "city",
      "population": "1447652",
      "postal_code": "61000-61499",
      "source:name:oc": "Lo Congrès",
      "wikidata": "Q42308",
      "wikipedia": "uk:Харків"
    }
  },
  {
    "type": "node",
    "id": 1756064253,
    "lat": 48.5167748,
    "lon": 34.6068797,
    "tags": {
      "alt_name:cs": "Kamenskaje",
      "katotth": "UA12040150010056523",
      "koatuu": "1210400000",
      "name": "Кам’янське",
      "name:cs": "Kamjanske",
      "name:de": "Kamjanske",
      "name:en": "Kamianske",
      "name:es": "Kamianské",
      "name:et": "Kamjanske",
      "name:eu": "Kamianske",
      "name:fr": "Kamianske",
      "name:he": "קמיאנסקה",
      "name:hr": "Kamjanske",
      "name:it": "Kam\"jans'ke",
      "name:ko": "카미얀스케",
      "name:nl": "Kamjanske",
      "name:prefix": "місто",
      "name:ru": "Каменское",
      "name:sr": "Камјанске",
      "name:uk": "Кам’янське",
      "old_name": "Дніпродзержинськ",
      "old_name:cs": "Dněprodzeržinsk",
      "old_name:de": "Dniprodserschynsk",
      "old_name:en": "Dniprodzerzhynsk",
      "old_name:fr": "Dniprodzerjynsk",
      "old_name:he": "דניפרודזרז'ינסק",
      "old_name:hu": "Dnyiprodzserzsinszk",
      "old_name:lt": "Dnieprodzeržinskas",
      "old_name:nl": "Dniprodzerzjynsk",
      "old_name:pl": "Dnieprodzierżyńsk",
      "old_name:ru": "Днепродзержинск",
      "old_name:uk": "Дніпродзержинськ",
      "place": "city",
      "population": "239237",
      "postal_code": "51900-51989",
      "wikidata": "Q156719",
      "wikipedia": "uk:Кам'янське"
    }
  },
  {
    "type": "node",
    "id": 1756064266,
    "lat": 46.8467267,
    "lon": 35.3827281,
    "tags": {
      "alt_name:el": "Μελιτόπολ",
      "katotth": "UA23080070010092407",
      "koatuu": "2310700000",
      "name": "Мелітополь",
      "name:ar": "ميليتوبول",
      "name:cs": "Melitopol",
      "name:de": "Melitopol",
      "name:el": "Μελιτόπολη",
      "name:en": "Melitopol",
      "name:eo": "Melitopolo",
      "name:es": "Melitopol",
      "name:et": "Melitopol",
      "name:eu": "Melitopol",
      "name:fr": "Melitopol",
      "name:he": "מליטופול",
      "name:hr": "Melitopolj",
      "name:hu": "Melitopol",
      "name:it": "Melitopol'",
      "name:ko": "멜리토폴",
      "name:lt": "Melitopolis",
      "name:ml": "മെലിറ്റോപോൾ",
      "name:nl": "Melitopol",
      "name:pl": "Melitopol",
      "name:prefix": "місто",
      "name:ro": "Melitopol",
      "name:ru": "Мелитополь",
      "name:sk": "Melitopoľ",
      "name:sr": "Мелитопољ",
      "name:tr": "Melitopol",
      "name:uk": "Мелітополь",
      "place": "city",
      "population": "156917",
      "postal_code": "72300-72324",
      "wikidata": "Q33349",
      "wikipedia": "uk:Мелітополь"
    }
  },
  {
    "type": "node",
    "id": 1830695012,
    "lat": 45.3534002,
    "lon": 36.4538645,
    "tags": {
      "addr:district": "городской округ Керчь",
      "addr:postcode": "98300-98399",
      "katotth": "UA01100210010057785",
      "koatuu": "0111200000",
      "name": "Керчь",
      "name:ar": "كرج",
      "name:az-Arab": "کرچ",
      "name:azb": "کرچ",
      "name:ca": "Kertx",
      "name:crh": "Keriç",
      "name:crh-cyr": "Керич",
      "name:cs": "Kerč",
      "name:de": "Kertsch",
      "name:el": "Κερτς",
      "name:en": "Kerch",
      "name:eo": "Kerĉo",
      "name:es": "Kerch",
      "name:et": "Kertš",
      "name:fa": "کرچ",
      "name:fi": "Kertš",
      "name:fr": "Kertch",
      "name:gr": "Βόσπορος",
      "name:grc": "Βόσπορος",
      "name:he": "קרץ'",
      "name:hr": "Kerč",
      "name:hu": "Kercs",
      "name:it": "Kerč'",
      "name:ko": "케르치",
      "name:ks": "کرچ",
      "name:ku": "Kerş",
      "name:la": "Kertschia",
      "name:lt": "Kerčė",
      "name:mk": "Керч",
      "name:ml": "കെർച്ച്",
      "name:mzn": "کرچ",
      "name:nl": "Kertsj",
      "name:no": "Kertsj",
      "name:ota": "کرش",
      "name:pl": "Kercz",
      "name:prefix": "місто",
      "name:ro": "Kerci",
      "name:ru": "Керчь",
      "name:sr": "Керч",
      "name:sv": "Kertj",
      "name:tr": "Kerç",
      "name:uk": "Керч",
      "name:ur": "کرچ",
      "name:zh": "刻赤",
      "name:zh-TW": "克赤",
      "official_status": "ru:город",
      "old_name": "Пантікапей",
      "old_name:cs": "Pantikapaion",
      "old_name:ru": "Пантикапей",
      "place": "city",
      "population": "151996",
      "population:date": "2021-01-01",
      "wikidata": "Q157065",
      "wikipedia": "ru:Керчь",
      "wikipedia:pl": "Kercz",
      "wikipedia:ru": "Керчь",
      "wikipedia:uk": "Керч"
    }
  },
  {
    "type": "node",
    "id": 3673183717,
    "lat": 50.5111168,
    "lon": 30.7900482,
    "tags": {
      "katotth": "UA32060050010081797",
      "koatuu": "3210600000",
      "name": "Бровари",
      "name:ckb": "برۆڤاری",
      "name:cs": "Brovary",
      "name:de": "Browary",
      "name:en": "Brovary",
      "name:eo": "Brovari",
      "name:es": "Brovarý",
      "name:et": "Brovarõ",
      "name:eu": "Brovary",
      "name:fr": "Brovary",
      "name:he": "ברובארי",
      "name:hr": "Brovari",
      "name:hu": "Brovari",
      "name:it": "Brovary",
      "name:ja": "ブロヴァルィー",
      "name:ko": "브로바리",
      "name:ku": "Brovarî",
      "name:ml": "ബ്രോവറി",
      "name:nl": "Brovary",
      "name:pl": "Browary",
      "name:prefix": "місто",
      "name:ru": "Бровары",
      "name:sr": "Бровари",
      "name:uk": "Бровари",
      "name:zh": "布罗瓦里",
      "name:zh-Hans": "布罗瓦里",
      "name:zh-Hant": "布羅瓦里",
      "place": "city",
      "population": "107384",
      "postal_code": "07400",
      "wikidata": "Q841026",
      "wikipedia": "uk:Бровари"
    }
  },
  {
    "type": "node",
    "id": 4126283179,
    "lat": 48.5105805,
    "lon": 32.2656283,
    "tags": {
      "capital": "4",
      "katotth": "UA35040210010019355",
      "koatuu": "3510100000",
      "name": "Кропивницький",
      "name:ar": "كيروفوهراد",
      "name:be": "Крапіўніцкі",
      "name:de": "Kropywnyzkyj",
      "name:en": "Kropyvnytskyi",
      "name:eo": "Kropivnicko",
      "name:es": "Kropivnitskiy",
      "name:et": "Kropõvnõtskõi",
      "name:fr": "Kropyvnytskyï",
      "name:he": "קרופיבניצקי",
      "name:hr": "Kropivnicki",
      "name:it": "Kropyvnyc'kyj",
      "name:ja": "クロプィウヌィーツィクィイ",
      "name:ko": "크로피우니츠키",
      "name:ml": "ക്രോപിവ്നിറ്റ്സ്കി",
      "name:nl": "Kropyvnytsky",
      "name:pl": "Kropywnycki",
      "name:prefix": "місто",
      "name:ro": "Kropîvnîțkîi",
      "name:ru": "Кропивницкий",
      "name:sr": "Кропивницкиј",
      "name:uk": "Кропивницький",
      "name:zh": "基洛沃格勒",
      "official_name": "Кропивницький",
      "old_name": "Кіровоград",
      "old_name:be": "Кіраваград",
      "old_name:de": "Kirowohrad",
      "old_name:en": "Kirovohrad",
      "old_name:eo": "Kirovogrado",
      "old_name:fr": "Kirovohrad;Zinovievsk;Elisavetgrad",
      "old_name:he": "קירובוגראד",
      "old_name:hr": "Kirovograd",
      "old_name:hu": "Kirovohrad",
      "old_name:ko": "키로보그라드",
      "old_name:lt": "Kirovohradas",
      "old_name:pl": "Kirowohrad",
      "old_name:ro": "Kirovohrad",
      "old_name:ru": "Кировоград",
      "old_name:sr": "Кировград",
      "old_name:uk": "Кіровоград",
      "place": "city",
      "population": "234712",
      "postal_code": "25000-25490",
      "wikidata": "Q158292",
      "wikipedia": "uk:Кропивницький"
    }
  }
]